"id","city","company","name","type","prod","type_ru","lat","long","out","name_en"
1,"Игарка","АО ""Ванкорнефть""","Ванкорское месторождение","oil-gas","479.10","нефтегазовое",67.757839,83.553772,"/oil-gas-field/vankorskoe","Vankorskoe"
2,"Тазовский","ПАО ""НК ""РОСНЕФТЬ""","Русское месторождение","gas-oil","422.00","газонефтяное",66.673514,80.539055,"/oil-gas-field/russkoe","Russkoe"
3,"Лянтор","ОАО ""Сургутнефтегаз""","Лянторское месторождение","oil-gas-condensate","380.00","нефтегазоконденсатное",61.701389,72.084167,"/oil-gas-field/lyantorskoe","Lyantorskoe"
4,"Тобольск","ООО «РН «Уватнефтегаз»","Урненское месторождение","oil","360.00","нефтяное",58.247954,73.55351,"/oil-gas-field/urnenskoye","Urnenskoye"
5,"Усинск","ООО «ЛУКОЙЛ-Коми»","Усинское месторождение","oil","350.00","нефтяное",66.16939,57.360992,"/oil-gas-field/usinskoe","Usinskoe"
6,"Ханты-Мансийск","АО «РН-Няганьнефтегаз»","Каменное месторождение (западная часть)","oil-gas","300.00","нефтегазовое",61.386856,67.185516,"/oil-gas-field/kamennoe-west","Kamennoe West"
7,"Киренск","ПАО ""НК ""РОСНЕФТЬ""","Верхнечонское месторождение","oil-gas-condensate","276.00","нефтегазоконденсатное",60.166667,109.333333,"/oil-gas-field/verkhnechonskoye","Verkhnechonskoye"
8,"Нижневартовск","АО «Томскнефть» ВНК","Советское месторождение","oil","232.80","нефтяное",60.743559,77.238007,"/oil-gas-field/sovetskoe","Sovetskoe"
9,"Ханты-Мансийск","ООО «Газпромнефть-Хантос»","Приобское месторождение (южная лицензионная территория (ЮЛТ))","oil","220.00","нефтяное",60.764526,69.8909,"/oil-gas-field/priobskoe-south","Priobskoe South"
10,"Сургут","ОАО ""Сургутнефтегаз""","Западно-Сургутское месторождение","oil","215.00","нефтяное",61.33321,73.153153,"/oil-gas-field/zapadno-surgutskoe","Zapadno Surgutskoe"
11,"Губкинский","ПАО ""НК ""РОСНЕФТЬ""","Северо-Комсомольское месторождение","oil-gas-condensate","205.00","нефтегазоконденсатное",64.704387,75.410843,"/oil-gas-field/north-komsomolskoe","North Komsomolskoe"
12,"Ханты-Мансийск","ООО «РН-Юганскнефтегаз»","Приразломное месторождение (Роснефть)","oil","200.00","нефтяное",60.907738,70.791779,"/oil-gas-field/prirazlomnoye-rosneft","Prirazlomnoye Rosneft"
13,"Сургут","ОАО ""Сургутнефтегаз""","Фёдоровское месторождение","oil-gas-condensate","189.90","нефтегазоконденсатное",61.702895,73.869324,"/oil-gas-field/fyodorovskoe","Fyodorovskoe"
14,"Мирный (Республика Саха (Якутия))","ПАО ""НК ""РОСНЕФТЬ""","Среднеботуобинское месторождение","oil-gas-condensate","166.00","нефтегазоконденсатное",61.783351,113.14476,"/oil-gas-field/srednebotuobinskoe","Srednebotuobinskoe"
15,"Тюмень","ОАО ""Сургутнефтегаз""","Рогожниковское месторождение","oil","150.00","нефтяное",62.385588,67.441292,"/oil-gas-field/rogozhnikovskoe","Rogozhnikovskoe"
16,"Ярега","ООО «ЛУКОЙЛ-Коми»","Ярегское месторождение","oil","131.80","нефтяное",63.347278,53.605471,"/oil-gas-field/yaregskoye","Yaregskoye"
17,NA,"Собственник/Инвестор","Кумкольское месторождение","gas-oil","130.00","газонефтяное",46.489727,65.60162,"/oil-gas-field/kumkolskoe","Kumkolskoe"
18,"Астрахань","ПАО ""ЛУКОЙЛ""","Месторождение им. В. Филановского","oil-gas-condensate","129.00","нефтегазоконденсатное",45.000278,48.561944,"/oil-gas-field/filanovskogo","Filanovskogo"
19,"Муравленко","АО «Газпромнефть-Ноябрьскнефтегаз»","Сугмутское месторождение","oil","123.77","нефтяное",63.81341,73.57818,"/oil-gas-field/sugmutskoe","Sugmutskoe"
20,"Губкинский","АО «Газпромнефть-Ноябрьскнефтегаз»","Меретояхинское месторождение","oil-gas","120.00","нефтегазовое",64.5903,74.66583,"/oil-gas-field/meretoyahinskoe","Meretoyahinskoe"
21,"Нижневартовск","АО «Томскнефть» ВНК","Вахское месторождение","oil","101.60","нефтяное",60.889704,78.987579,"/oil-gas-field/vakhskoe","Vakhskoe"
22,"Надым","ООО «Газпром нефть Новый Порт»","Новопортовское месторождение","oil-gas-condensate","100.00","нефтегазоконденсатное",67.781219,72.559204,"/oil-gas-field/novoportovoe","Novoportovoe"
23,"Новый Уренгой","ООО «РН-Пурнефтегаз»","Северо-Харампурское месторождение","gas-oil","88.00","газонефтяное",64.227005,79.568911,"/oil-gas-field/severo-kharampurskoye","Severo Kharampurskoye"
24,"Губкинский","ПАО ""НК ""РОСНЕФТЬ""","Южно-Харампурское месторождение","oil-gas","88.00","нефтегазовое",63.927613,79.647102,"/oil-gas-field/south-kharampur","South Kharampur"
25,"Новый Уренгой","ПАО ""НК ""РОСНЕФТЬ""","Харампурское месторождение","oil-gas-condensate","80.00","нефтегазоконденсатное",63.904772,79.707184,"/oil-gas-field/harampurskoe","Harampurskoe"
26,"пгт Ноглики","ООО «Газпромнефть-Сахалин»","Месторождение Нептун (Аяшский участок)","oil","80.00","нефтяное",52.360833,144.096944,"/oil-gas-field/neptun","Neptun"
27,"Новый Уренгой","ООО «Газпромнефть-Ямал»","Северо-Самбургское месторождение","oil","80.00","нефтяное",67.005278,77.479167,"/oil-gas-field/severo-samburgskoe","Severo Samburgskoe"
28,"Воткинск","ОАО ""Удмуртнефть""","Мишкинское месторождение","oil","79.90","нефтяное",57.130184,54.028702,"/oil-gas-field/mishkinskoe","Mishkinskoe"
29,"Дудинка","АО «Самотлорнефтегаз»","Лодочное месторождение","oil-gas-condensate","77.00","нефтегазоконденсатное",67.540278,83.1875,"/oil-gas-field/lodochnoe","Lodochnoe"
30,"пос. Лыхма Белоярского р-на","ПАО ""ЛУКОЙЛ""","Месторождение им. В.Н. Виноградова (Большое Ольховское нефтяное месторождение)","oil","75.00","нефтяное",62.965212,67.49176,"/oil-gas-field/v-n-vinogradova","V N Vinogradova"
31,"Сарапул","ОАО ""Удмуртнефть""","Ельниковское месторождение","oil","74.91","нефтяное",56.259753,54.060974,"/oil-gas-field/elnikovskoe","Elnikovskoe"
32,"Тазовский","ООО ""Газпром добыча Ямбург""","Тазовское месторождение","oil-gas-condensate","72.00","нефтегазоконденсатное",67.331944,78.998056,"/oil-gas-field/tazovskoe","Tazovskoe"
33,"Ноябрьск","АО «Газпромнефть-Ноябрьскнефтегаз»","Холмогорское месторождение","oil","70.00","нефтяное",62.95772,74.35546,"/oil-gas-field/kholmogorskoye","Kholmogorskoye"
34,"Нарьян-Мар","ООО «Газпром нефть шельф»","Приразломное месторождение","oil","70.00","нефтяное",69.25177,57.34176,"/oil-gas-field/prirazlomnoe","Prirazlomnoe"
35,"Игарка","ООО «ЛУКОЙЛ-Западная Сибирь»","Пякяхинское месторождение","oil-gas-condensate","69.50","нефтегазоконденсатное",67.469398,80.074539,"/oil-gas-field/pyakyakhinskoye","Pyakyakhinskoye"
36,"Воткинск","ОАО ""Удмуртнефть""","Гремихинское месторождение","oil","65.44","нефтяное",56.845029,53.657913,"/oil-gas-field/gremihinskoe","Gremihinskoe"
37,"Губкинский","АО «Газпромнефть-Ноябрьскнефтегаз»","Вынгаяхинское месторождение","oil-gas","62.00","нефтегазовое",63.75699,76.80404,"/oil-gas-field/vyngayakhinskoye","Vyngayakhinskoye"
38,"Нижневартовск","ПАО ""НК ""РОСНЕФТЬ""","Ван-Еганское месторождение","oil-gas-condensate","62.00","нефтегазоконденсатное",61.873957,77.246933,"/oil-gas-field/van-eganskoe","Van Eganskoe"
39,"Ноябрьск","АО «Газпромнефть-Ноябрьскнефтегаз»","Спорышевское месторождение","oil","54.60","нефтяное",63.30651,75.51727,"/oil-gas-field/sporyshevskoye","Sporyshevskoye"
40,"Муравленко","АО «Газпромнефть-Ноябрьскнефтегаз»","Крайнее месторождение","oil","52.00","нефтяное",63.67428,74.31289,"/oil-gas-field/krainee","Krainee"
41,"Нягань","АО «РН-Няганьнефтегаз»","Ем-Ёговское месторождение","oil","51.00","нефтяное",61.806879,66.479645,"/oil-gas-field/yem-yogovskoye","Yem Yogovskoye"
42,"Нарьян-Мар","ООО ""Башнефть-Полюс""","Месторождение им. Р. Требса (Варкнавтское месторождение)","oil","51.00","нефтяное",68.653556,57.900696,"/oil-gas-field/r-trebs-varknavt","R Trebs Varknavt"
43,"Ханты-Мансийск","ПАО ""НК ""РОСНЕФТЬ""","Назымское месторождение","oil","43.00","нефтяное",62.450278,68.0075,"/oil-gas-field/nazymskoe","Nazymskoe"
44,"Астрахань","ЗАО ""Нефтегазовая компания ""АФБ"" (""НГК ""АФБ"")","Месторождение Великое","oil-gas","42.30","нефтегазовое",47.186083,47.510259,"/oil-gas-field/velikoe","Velikoe"
45,"Ханты-Мансийск","Собственник/Инвестор","Гавриковское месторождение","oil","40.00","нефтяное",58.947778,74.265556,"/oil-gas-field/gavrikovskoe","Gavrikovskoe"
46,"Новый Уренгой","ООО «НОВАТЭК-ТАРКОСАЛЕНЕФТЕГАЗ»","Харбейское месторождение","oil-gas-condensate","40.00","нефтегазоконденсатное",67.014444,80.895833,"/oil-gas-field/kharbeiskoe","Kharbeiskoe"
47,"Нарьян-Мар","ООО ""Башнефть-Полюс""","Месторождение им. А. Титова","oil","38.00","нефтяное",68.303428,58.371048,"/oil-gas-field/a-titova","A Titova"
48,"Астрахань","ПАО ""ЛУКОЙЛ""","Месторождение им. В.И. Грайфера (Ракушечное месторождение)","gas-condensate","38.00","газоконденсатное",45.062778,48.610833,"/oil-gas-field/rakushechnoe","Rakushechnoe"
49,"Куюмба","ПАО «Газпром нефть»","Оморинское месторождение","oil-gas","36.00","нефтегазовое",60.166669,95.414478,"/oil-gas-field/omorinskoye","Omorinskoye"
50,"Киренск","ООО «ИНК» (Иркутская нефтяная компания)","Западно-Аянское месторождение","oil-gas-condensate","33.58","нефтегазоконденсатное",57.705615,107.432556,"/oil-gas-field/west-ayanskoe","West Ayanskoe"
51,"Ханты-Мансийск","ОАО ""Сургутнефтегаз""","Северо-Рогожниковское (имени В. И. Шпильмана) месторождение","oil","32.95","нефтяное",62.423446,66.906738,"/oil-gas-field/severo-rogozhnikovskoe-shpilmana","Severo Rogozhnikovskoe Shpilmana"
52,"Северск","АО ""Новосибирскнефтегаз""","Верх-Тарское месторождение","oil","32.00","нефтяное",56.803698,78.718586,"/oil-gas-field/verkh-tarskoe","Verkh Tarskoe"
53,"Ханты-Мансийск","ООО ""Башнефть-Полюс""","Тортасинское месторождение","oil","29.00","нефтяное",62.211389,69.501111,"/oil-gas-field/tortasinskoe","Tortasinskoe"
54,"Астрахань","ПАО ""ЛУКОЙЛ""","Месторождение им. Ю. Корчагина","oil-gas-condensate","28.80","нефтегазоконденсатное",44.924722,48.985556,"/oil-gas-field/korchagina","Korchagina"
55,"Ноябрьск","АО «Газпромнефть-Ноябрьскнефтегаз»","Равнинное месторождение","oil","28.00","нефтяное",63.32809,79.52316,"/oil-gas-field/ravninnoye","Ravninnoye"
56,"Ноябрьск","АО «Газпромнефть-Ноябрьскнефтегаз»","Вынгапуровское месторождение","oil-gas","26.00","нефтегазовое",63.05247,76.91253,"/oil-gas-field/vyngapurovskoye","Vyngapurovskoye"
57,"Оренбург","Собственник/Инвестор","Сладковско-заречное месторождение","oil","26.00","нефтяное",51.666389,52.828056,"/oil-gas-field/sladovsko-zarechnoe","Sladovsko Zarechnoe"
58,"Кедровый","ООО «Газпромнефть-Восток»","Урманское месторождение","oil","25.25","нефтяное",57.60606,78.41148,"/oil-gas-field/urmanskoye","Urmanskoye"
59,"Оренбург","ООО «Газпромнефть-Оренбург»","Царичанское месторождение","oil-gas-condensate","25.00","нефтегазоконденсатное",52.22275,54.2134,"/oil-gas-field/tsarichanskoye","Tsarichanskoye"
60,"Демьянское","ООО «Газпромнефть-Хантос»","Зимнее месторождение","oil","23.00","нефтяное",59.63929,68.89114,"/oil-gas-field/zimnee","Zimnee"
61,"Ханты-Мансийск","ПАО ""НК ""РОСНЕФТЬ""","Западно-Эргинское месторождение","oil","23.00","нефтяное",60.572222,69.030278,"/oil-gas-field/zapadno-erginskoe","Zapadno Erginskoe"
62,"Нягань","ООО «Газпромнефть-Хантос»","Пальяновское месторождение","oil","20.30","нефтяное",61.73412,66.95617,"/oil-gas-field/palyanovskoye","Palyanovskoye"
63,"Тара","ООО «Газпромнефть-Восток»","Крапивинское месторождение Юго-Западная часть","oil","20.00","нефтяное",57.90682,75.53924,"/oil-gas-field/krapivinskoye","Krapivinskoye"
64,"Губкинский","АО «Газпромнефть-Ноябрьскнефтегаз»","Еты-Пуровское месторождение","oil-gas","20.00","нефтегазовое",63.96451,77.56896,"/oil-gas-field/eti-purovskoe","Eti Purovskoe"
65,"Кедровый","ООО «Газпромнефть-Восток»","Арчинское месторождение","oil-gas-condensate","18.22","нефтегазоконденсатное",57.49479,78.46504,"/oil-gas-field/archinskoe","Archinskoe"
66,"Салым","ООО «РН «Уватнефтегаз»","Косухинское месторождение","oil","18.00","нефтяное",58.960556,71.806111,"/oil-gas-field/kosukhinskoe","Kosukhinskoe"
67,"Нижневартовск","ООО «Газпромнефть-Хантос»","Малоюганское месторождение","oil","17.30","нефтяное",60.183333,75.083333,"/oil-gas-field/maloyuganskoe","Maloyuganskoe"
68,"Муравленко","АО «Газпромнефть-Ноябрьскнефтегаз»","Романовское месторождение","oil","17.10","нефтяное",63.83945,73.9833,"/oil-gas-field/romanovskoe","Romanovskoe"
69,"Южно-Сахалинск","Эксон Нефтегаз Лимитед","Месторождение Чайво","oil-gas-condensate","14.00","нефтегазоконденсатное",52.422778,143.449167,"/oil-gas-field/chayvo","Chayvo"
70,"Тара","АО «Томскнефть» ВНК","Игольско-Таловое месторождение","oil","13.00","нефтяное",57.677356,76.293182,"/oil-gas-field/igolsko-tall","Igolsko Tall"
71,"Нижневартовск","ООО «Газпромнефть-Хантос»","Южное месторождение","oil","12.90","нефтяное",60.62269,75.98281,"/oil-gas-field/yuzhnoe","Yuzhnoe"
72,"Саратов","ООО «НК ГеоПромНефть»","Клинцовское месторождение","oil","12.00","нефтяное",51.658341,49.199352,"/oil-gas-field/klintsovsky","Klintsovsky"
73,"Тобольск","ООО «РН «Уватнефтегаз»","Протозановское месторождение","oil","12.00","нефтяное",58.923613,72.790432,"/oil-gas-field/protozanovskoe","Protozanovskoe"
74,"Пыть-Ях","ООО «РН-Юганскнефтегаз»","Месторождение им. Московцева","oil","11.00","нефтяное",60.060833,72.731389,"/oil-gas-field/moscovets","Moscovets"
75,"Томск","АО НК ""РуссНефть""","Южно-Мыльджинское месторождение","oil","10.50","нефтяное",58.522568,78.138027,"/oil-gas-field/yuzhno-myldzhinskoe","Yuzhno Myldzhinskoe"
76,"Иркутск","АО «ИНК-Запад»","Ичединское месторождение","oil","10.00","нефтяное",57.874229,105.786804,"/oil-gas-field/ichedinskoe","Ichedinskoe"
77,"Усинск","ООО ""Енисей""","Западно-Сынатыское месторождение","oil-gas","9.00","нефтегазовое",66.32124,57.227097,"/oil-gas-field/west-synat","West Synat"
78,"Новый Уренгой","ПАО ""НК ""РОСНЕФТЬ""","Береговое месторождение","gas-condensate","9.00","газоконденсатное",65.832873,78.85231,"/oil-gas-field/beregovoe","Beregovoe"
79,"Ханты-Мансийск","ОАО ""Сургутнефтегаз""","Южно-Нюрымское месторождение","oil","8.50","нефтяное",59.684988,69.913387,"/oil-gas-field/yuzhno-nyurymskoe","Yuzhno Nyurymskoe"
80,"Сорочинск","ООО «Газпромнефть-Оренбург»","Балейкинское месторождение","oil","7.22","нефтяное",52.45182,53.73275,"/oil-gas-field/baleykinskoe","Baleykinskoe"
81,"Оха","ПАО ""НК ""РОСНЕФТЬ""","Месторождение Тунгор","oil-gas-condensate","6.87","нефтегазоконденсатное",53.383333,142.966667,"/oil-gas-field/tungor","Tungor"
82,"Нижневартовск","ООО «Газпромнефть-Хантос»","Орехово-Ермаковское месторождение","oil","6.80","нефтяное",60.83219,75.73287,"/oil-gas-field/orehovo-ermakovskoe","Orehovo Ermakovskoe"
83,"Тазовский","ООО «НОВАТЭК-ТАРКОСАЛЕНЕФТЕГАЗ»","Северо-Русское месторождение","gas-condensate","6.50","газоконденсатное",67.162778,80.235278,"/oil-gas-field/north-russkoe","North Russkoe"
84,"Оренбург","ООО «Газпромнефть-Оренбург»","Капитоновское месторождение","oil-gas","5.80","нефтегазовое",52.03221,54.02526,"/oil-gas-field/kapitonovskoye","Kapitonovskoye"
85,"Нефтегорск","АО ""Самаранефтегаз""","Кулешовское месторождение","oil","5.10","нефтяное",52.847416,51.209593,"/oil-gas-field/kuleshovskoe","Kuleshovskoe"
86,"Бариновка","АО ""Самаранефтегаз""","Бариновско-Лебяжинское месторождение","oil","4.60","нефтяное",52.907349,50.854855,"/oil-gas-field/barinovsko-lebyazhinskoe","Barinovsko Lebyazhinskoe"
87,"Отрадный","АО ""Самаранефтегаз""","Мухановское месторождение","oil","4.10","нефтяное",53.338356,51.534977,"/oil-gas-field/muhanovskoe","Muhanovskoe"
88,"Тымовское","ПАО «Газпром»","Южно-Киринское месторождение","gas-condensate","4.10","газоконденсатное",51.177621,144.294434,"/oil-gas-field/south-kirinskoe","South Kirinskoe"
89,"Нефтегорск","АО ""Самаранефтегаз""","Утевское месторождение","oil","3.94","нефтяное",52.882702,51.017675,"/oil-gas-field/utevskoe","Utevskoe"
90,"Нижневартовск","ООО «Газпромнефть-Хантос»","Южно-Киняминское месторождение","oil","3.70","нефтяное",60.18045,75.14099,"/oil-gas-field/south-kinyaminskoe","South Kinyaminskoe"
91,"Батайск","ООО «Газпром добыча Краснодар»","Азовское месторождение","oil-gas","3.19","нефтегазовое",44.866667,38.698611,"/oil-gas-field/azovskoye","Azovskoye"
92,"Астрахань","ПАО ""ЛУКОЙЛ""","Хвалынское месторождение","oil-gas-condensate","2.00","нефтегазоконденсатное",44.215833,49.286667,"/oil-gas-field/hvalinskoe","Hvalinskoe"
93,"Тара","АО «Томскнефть» ВНК","Двуреченское месторождение","oil","1.80","нефтяное",58.276174,75.752059,"/oil-gas-field/dvurechenskoe","Dvurechenskoe"
94,"Кедровый","ООО «Газпромнефть-Восток»","Шингинское месторождение","oil-gas-condensate","1.20","нефтегазоконденсатное",58.31886,78.50349,"/oil-gas-field/shinginskoye","Shinginskoye"
95,"Оренбург","ООО ""Газпром добыча Оренбург""","Нагумановское месторождение","oil-gas-condensate","0.96","нефтегазоконденсатное",51.305278,55.306944,"/oil-gas-field/nagumanovskoye","Nagumanovskoye"
97,"Кедровый","ООО «Газпромнефть-Восток»","Западно-Лугинецкое месторождение","oil","","нефтяное",58.07896,78.66004,"/oil-gas-field/zapadno-luginetskoye","Zapadno Luginetskoye"
98,"Кедровый","ООО «Газпромнефть-Восток»","Нижнелугинецкое месторождение","oil","","нефтяное",58.17685,78.6985,"/oil-gas-field/nizhneluginetskoye","Nizhneluginetskoye"
99,"Муравленко","АО «Газпромнефть-Ноябрьскнефтегаз»","Суторминское месторождение","oil-gas","","нефтегазовое",63.77095,74.68643,"/oil-gas-field/sutorminskoye","Sutorminskoye"
100,"Муравленко","АО «Газпромнефть-Ноябрьскнефтегаз»","Муравленковское месторождение","gas-oil","","газонефтяное",63.99523,74.88418,"/oil-gas-field/muravlenkovskoye","Muravlenkovskoye"
101,"Губкинский","ПАО ""НК ""РОСНЕФТЬ""","Ново-Пурпейское месторождение","oil","","нефтяное",64.18665,75.42251,"/oil-gas-field/novo-purpeiskoe","Novo Purpeiskoe"
102,"Муравленко","АО «Газпромнефть-Ноябрьскнефтегаз»","Умсейское месторождение","oil-gas-condensate","","нефтегазоконденсатное",64.14895,74.47357,"/oil-gas-field/usmeiskoe","Usmeiskoe"
103,"Муравленко","АО «Газпромнефть-Ноябрьскнефтегаз»","Северо-Янгтинское месторождение","oil-gas","","нефтегазовое",64.2422,74.93499,"/oil-gas-field/severo-yangtinskoe","Severo Yangtinskoe"
104,"Муравленко","АО «Газпромнефть-Ноябрьскнефтегаз»","Северо-Памалияхское","oil","","нефтяное",64.00245,74.24697,"/oil-gas-field/severo-pamalihinskoe","Severo Pamalihinskoe"
105,"Ноябрьск","АО «Газпромнефть-Ноябрьскнефтегаз»","Карамовское месторождение","oil","","нефтяное",63.24723,74.56146,"/oil-gas-field/karamovskoe","Karamovskoe"
106,"Ноябрьск","АО «Газпромнефть-Ноябрьскнефтегаз»","Пограничное месторождение","oil","","нефтяное",62.89146,75.2481,"/oil-gas-field/pogranichnoe","Pogranichnoe"
107,"Ноябрьск","АО «Газпромнефть-Ноябрьскнефтегаз»","Средне-Итурское месторождение","oil","","нефтяное",63.40689,74.78118,"/oil-gas-field/sredne-iturskoe","Sredne Iturskoe"
108,"Ноябрьск","АО «Газпромнефть-Ноябрьскнефтегаз»","Западно-Ноябрьское месторождение","oil","","нефтяное",63.44498,74.99679,"/oil-gas-field/zapadno-noyabrskoe","Zapadno Noyabrskoe"
109,"Ноябрьск","АО «Газпромнефть-Ноябрьскнефтегаз»","Новогоднее месторождение","oil","","нефтяное",63.44437,76.92901,"/oil-gas-field/novogodnee","Novogodnee"
110,"Ноябрьск","АО «Газпромнефть-Ноябрьскнефтегаз»","Ярайнерское месторождение","oil","","нефтяное",63.14939,77.83264,"/oil-gas-field/yarainerskoye","Yarainerskoye"
111,"Ноябрьск","АО «Газпромнефть-Ноябрьскнефтегаз»","Холмистое месторождение","oil-gas","","нефтегазовое",63.23115,80.06835,"/oil-gas-field/holmistoe","Holmistoe"
112,"Ноябрьск","АО «Газпромнефть-Ноябрьскнефтегаз»","Чатылькинское месторождение","oil","","нефтяное",63.44621,80.98297,"/oil-gas-field/chatylkinskoe","Chatylkinskoe"
113,"Ноябрьск","АО «Газпромнефть-Ноябрьскнефтегаз»","Воргенское месторождение","oil","","нефтяное",63.16613,81.21917,"/oil-gas-field/vorgenskoye","Vorgenskoye"
114,"Оренбург","ООО «Газпромнефть-Оренбург»","Оренбургское месторождение (Восточный участок)","oil-gas-condensate","","нефтегазоконденсатное",51.63762,55.40817,"/oil-gas-field/orenburgskoe","Orenburgskoe"
117,"Ханты-Мансийск","ПАО ""НК ""РОСНЕФТЬ""","Приобское месторождение (северная лицензионная территория (СЛТ))","oil","","нефтяное",61.323656,70.298767,"/oil-gas-field/priobskoe-north","Priobskoe North"
118,"Самара","АО ""Самаранефтегаз""","Южно-Орловское месторождение","oil","","нефтяное",53.713574,50.809364,"/oil-gas-field/yzhno-orlovskoe","Yzhno Orlovskoe"
119,"Ижевск","ОАО ""Удмуртнефть""","Архангельское месторождение","oil","","нефтяное",56.717696,52.534218,"/oil-gas-field/arhangelskoe","Arhangelskoe"
120,"Киенгоп","ОАО ""Удмуртнефть""","Киенгопское месторождение","oil","","нефтяное",57.26902,53.361969,"/oil-gas-field/kiengopskoe","Kiengopskoe"
121,"Игра","ОАО ""Удмуртнефть""","Чутырское месторождение","oil","","нефтяное",57.678457,52.932129,"/oil-gas-field/chutirskoe","Chutirskoe"
122,"Кунгур","ООО ""ЛУКОЙЛ-ПЕРМЬ""","Ильичевское месторождение","oil","","нефтяное",57.936771,56.842918,"/oil-gas-field/illichivskoe","Illichivskoe"
123,"Нижневартовск","АО «Томскнефть» ВНК","Западно-Полуденное месторождение","oil","","нефтяное",60.574151,76.500549,"/oil-gas-field/zapadno-poludennoe","Zapadno Poludennoe"
124,"Новый Уренгой","АО ""Мессояханефтегаз""","Западно-Мессояхское месторождение","oil-gas","","нефтегазовое",68.494467,78.364277,"/oil-gas-field/zapadno-messoyakhskoye","Zapadno Messoyakhskoye"
125,"Новый Уренгой","АО ""Мессояханефтегаз""","Восточно-Мессояхское месторождение","oil-gas","","нефтегазовое",68.510571,79.748554,"/oil-gas-field/vostochno-messoyakhskoye","Vostochno Messoyakhskoye"
126,"Сабетта","ОАО ""Ямал СПГ""","Южно-Тамбейское месторождение","gas-condensate","","газоконденсатное",71.309156,71.858826,"/oil-gas-field/yuzhno-tambeyskoye","Yuzhno Tambeyskoye"
127,"Юрхарово","АО «Нортгаз»","Северо-Уренгойское месторождение","gas-condensate","","газоконденсатное",67.512771,76.637878,"/oil-gas-field/severo-urengoyskoe","Severo Urengoyskoe"
128,"Юрхарово","ООО «НОВАТЭК-ЮРХАРОВНЕФТЕГАЗ»","Юрхаровское месторождение","oil-gas-condensate","","нефтегазоконденсатное",67.785892,77.052612,"/oil-gas-field/yurkharovskoye","Yurkharovskoye"
129,"Тарко-Сале","ООО «НОВАТЭК-ТАРКОСАЛЕНЕФТЕГАЗ»","Восточно-Таркосалинское месторождение","oil-gas-condensate","","нефтегазоконденсатное",65.025785,78.189697,"/oil-gas-field/east-tarkosalinskoye","East Tarkosalinskoye"
130,"Тарко-Сале","ООО «НОВАТЭК-ТАРКОСАЛЕНЕФТЕГАЗ»","Ханчейское месторождение","gas-condensate","","газоконденсатное",64.949721,78.398438,"/oil-gas-field/khancheyskoye","Khancheyskoye"
131,"Новый Уренгой","ОАО ""Арктикгаз"" (""АРКТИЧЕСКАЯ ГАЗОВАЯ КОМПАНИЯ"")","Самбургский лицензионный участок (Самбургское месторождение)","gas-condensate","","газоконденсатное",66.549971,77.19389,"/oil-gas-field/samburg-license-area","Samburg License Area"
132,"Новый Уренгой","ОАО ""Арктикгаз"" (""АРКТИЧЕСКАЯ ГАЗОВАЯ КОМПАНИЯ"")","Уренгойское месторождение ОАО «АРКТИКГАЗ»","oil-gas-condensate","","нефтегазоконденсатное",66.477112,77.104797,"/oil-gas-field/urengoi-oil-field-arcticgaz","Urengoi Oil Field Arcticgaz"
133,"Уренгой","ОАО ""Арктикгаз"" (""АРКТИЧЕСКАЯ ГАЗОВАЯ КОМПАНИЯ"")","Яро-Яхинское месторождение (Яро-Яхинский лицензионный участок)","oil-gas-condensate","","нефтегазоконденсатное",66.260568,78.713779,"/oil-gas-field/jaro-yakhinsky-license-area","Jaro Yakhinsky License Area"
134,"Яры","Собственник/Инвестор","Юмбъяхское месторождение","gas-condensate","","газоконденсатное",68.659554,67.854309,"/oil-gas-field/yumbyakhskoe","Yumbyakhskoe"
135,"Мунгуй","АО ""ТАЙМЫРНЕФТЕГАЗ""","Северо-Пайяхское месторождение","oil","","нефтяное",70.500002,84.497811,"/oil-gas-field/north-payakhskoe","North Payakhskoe"
136,"Киренск","АО ""ВЕРХНЕЧОНСКНЕФТЕГАЗ"" (АО ""ВЧНГ"")","Северо-Даниловское месторождение","oil-gas-condensate","","нефтегазоконденсатное",59.466013,108.07663,"/oil-gas-field/north-danilovskoe","North Danilovskoe"
137,"Южно-Сахалинск","ООО ""Венинефть""","Северо-Венинское месторождение","gas-condensate","","газоконденсатное",51.964577,143.245239,"/oil-gas-field/north-veninskoe","North Veninskoe"
138,"Тазовский","ООО «НОВАТЭК-ТАРКОСАЛЕНЕФТЕГАЗ»","Дороговское месторождение","oil-gas-condensate","","нефтегазоконденсатное",67.221053,81.716309,"/oil-gas-field/dorogovskoe","Dorogovskoe"
139,"Тобольск","ООО «РН «Уватнефтегаз»","Усть-Тегусское месторождение","oil","","нефтяное",58.71836,73.992435,"/oil-gas-field/ust-tegusskoe","Ust Tegusskoe"
140,"Нижневартовск","АО «Самотлорнефтегаз»","Самотлорское месторождение","oil","","нефтяное",61.0526,76.8288,"/oil-gas-field/samotlor","Samotlor"
141,"Альметьевск","ПАО «Татнефть»","Ромашкинское месторождение","oil","","нефтяное",54.572957,52.369487,"/oil-gas-field/romashkinskoye","Romashkinskoye"
142,"Атырау","АО ""КоЖан""","Морское месторождение","oil","","нефтяное",46.675826,53.040619,"/oil-gas-field/morskoe","Morskoe"
143,"Харьяга","АО ""Зарубежнефть""","Харьягинское месторождение","oil","","нефтяное",67.142167,56.653056,"/oil-gas-field/kharyaga","Kharyaga"
144,"Нефтеюганск","ООО «РН-Юганскнефтегаз»","Мамонтовское месторождение","oil","","нефтяное",60.749767,72.91008,"/oil-gas-field/mamontovskoe","Mamontovskoe"
145,"Ханты-Мансийск","ООО «ЛУКОЙЛ-Западная Сибирь»","Каменный лицензионный участок (восточная часть Красноленинского месторождения)","oil-gas","","нефтегазовое",61.369752,67.483521,"/oil-gas-field/kamennoe-east","Kamennoe East"
146,"Нягань","АО «РН-Няганьнефтегаз»","Талинское месторождение","oil","","нефтяное",61.490921,66.272965,"/oil-gas-field/talinskoe","Talinskoe"
147,"Ханты-Мансийск","ПАО ""НК ""РОСНЕФТЬ""","Эргинское месторождение","oil","","нефтяное",60.741713,69.216614,"/oil-gas-field/erginskoye","Erginskoye"
148,"Куюмба","ООО «Славнефть-Красноярскнефтегаз»","Куюмбинское месторождение","oil","","нефтяное",60.897721,97.230377,"/oil-gas-field/kuyumbinskoye","Kuyumbinskoye"
149,"Сабетта","ООО ""Арктик СПГ 2""","Салмановское (Утреннее) месторождение","gas-condensate","","газоконденсатное",71.057569,73.975067,"/oil-gas-field/salmanovskoe-utrennee","Salmanovskoe Utrennee"
150,"Салым","«Салым Петролеум Девелопмент Н.В.»","Западно-Салымское месторождение","oil","","нефтяное",60.288173,70.897522,"/oil-gas-field/west-salymskoe","West Salymskoe"
151,"Салехард","ООО ""Арктик СПГ 1""","Гыданское месторождение","gas-condensate","","газоконденсатное",70.322207,76.184692,"/oil-gas-field/gydanskoye","Gydanskoye"
152,"Киренск","ООО «ИНК» (Иркутская нефтяная компания)","Ярактинское месторождение","oil-gas-condensate","","нефтегазоконденсатное",57.999002,106.730461,"/oil-gas-field/yaraktinskoe","Yaraktinskoe"
153,"Атырау","North Caspian Operating Company (NCOC) / Норт Каспиан Оперейтинг Компани Н.В. (НКОК)","Месторождение Кашаган","oil-gas","","нефтегазовое",46.200745,51.696854,"/oil-gas-field/kashagan","Kashagan"
154,"Дудинка","ПАО ""НК ""РОСНЕФТЬ""","Сузунское месторождение","oil-gas","","нефтегазовое",68.449491,83.652992,"/oil-gas-field/suzunskoe","Suzunskoe"
155,"Ноябрьск","ПАО ""НК ""РОСНЕФТЬ""","Северо-Тарасовское месторождение","oil-gas","","нефтегазовое",64.548219,77.734795,"/oil-gas-field/severo-tarasovskoe","Severo Tarasovskoe"
156,"Ноябрьск","ПАО ""НК ""РОСНЕФТЬ""","Тарасовское месторождение","oil-gas","","нефтегазовое",64.403762,77.77977,"/oil-gas-field/tarasovskoe","Tarasovskoe"
157,"Южно-Сахалинск","ПАО ""НК ""РОСНЕФТЬ""","Месторождение Одопту-море (Северный купол)","oil","","нефтяное",53.298611,143.328056,"/oil-gas-field/odoptu-sea","Odoptu Sea"
158,"Южно-Сахалинск","ПАО ""НК ""РОСНЕФТЬ""","Катангли месторождение","oil","","нефтяное",51.700013,143.229618,"/oil-gas-field/katangli","Katangli"
159,"Южно-Сахалинск","ПАО ""НК ""РОСНЕФТЬ""","Набиль месторождение","oil-gas","","нефтегазовое",51.532615,143.400507,"/oil-gas-field/nabil","Nabil"
160,"Южно-Сахалинск","ПАО ""НК ""РОСНЕФТЬ""","Восточное Даги (Даги) месторождение","oil-gas","","нефтегазовое",52.138335,143.058815,"/oil-gas-field/vostochnoedagi","Vostochnoedagi"
161,"Ноябрьск","ООО «РН-Пурнефтегаз»","Западно-Пурпейское месторождение","oil-gas","","нефтегазовое",64.579185,75.552807,"/oil-gas-field/zapadno-purpeyskoe","Zapadno Purpeyskoe"
163,"Ноябрьск","ООО «РН-Пурнефтегаз»","Усть-Харампурское месторождение","oil","","нефтяное",64.283653,78.167725,"/oil-gas-field/ust-kcharampurskoe","Ust Kcharampurskoe"
164,"Сургут","ПАО ""НК ""РОСНЕФТЬ""","Правдинское месторождение","oil-gas","","нефтегазовое",60.951777,71.842346,"/oil-gas-field/pravdinskoe","Pravdinskoe"
165,"Томск","ОАО «Томскгазпром»","Северо-Останинское месторождение","oil","","нефтяное",57.906093,79.307556,"/oil-gas-field/severo-ostaninskoe","Severo Ostaninskoe"
166,"Томск","ОАО «Томскгазпром»","Казанское месторождение","oil-gas","","нефтегазовое",57.195064,79.320259,"/oil-gas-field/kazanskoe","Kazanskoe"
167,"Томск","ОАО «Томскгазпром»","Мыльджинское месторождение","oil-gas","","нефтегазовое",58.991133,78.449078,"/oil-gas-field/myldzhinskoe","Myldzhinskoe"
169,"Томск","АО «Независимая нефтегазовая компания»","Средне-Нюрольское месторождение","oil-gas","","нефтегазовое",58.899769,77.893324,"/oil-gas-field/sredne-nyurolskoe","Sredne Nyurolskoe"
170,"Томск","АО «Независимая нефтегазовая компания»","Ключевское месторождение","oil-gas","","нефтегазовое",58.831027,77.530346,"/oil-gas-field/klyuchevskoe","Klyuchevskoe"
171,"Томск","АО «Независимая нефтегазовая компания»","Пуглалымское месторождение","oil-gas","","нефтегазовое",58.871073,77.741833,"/oil-gas-field/puglalymskoe","Puglalymskoe"
172,"Томск","ООО «Газпромнефть-Восток»","Кулгинское месторождение","oil-gas","","нефтегазовое",57.276445,78.701248,"/oil-gas-field/kulginskoe","Kulginskoe"
173,"Томск","ООО «Газпромнефть-Восток»","Южно-Табаганское месторождение","oil-gas","","нефтегазовое",57.284517,78.881364,"/oil-gas-field/yuzhno-tabaganskoe","Yuzhno Tabaganskoe"
174,"Томск","ООО «Газпромнефть-Восток»","Лугинецкое месторождение","oil-gas","","нефтегазовое",58.165995,78.892822,"/oil-gas-field/luginetskoe","Luginetskoe"
175,"Усть-Кут","ООО «ИНК» (Иркутская нефтяная компания)","Даниловское месторождение","oil-gas","","нефтегазовое",59.441584,108.029251,"/oil-gas-field/danilovskoe","Danilovskoe"
176,"Ханты-Мансийск","ОАО ""Сургутнефтегаз""","Имени Н. К. Байбакова месторождение","oil","","нефтяное",61.923685,67.682991,"/oil-gas-field/baibakova","Baibakova"
177,"Сургут","ПАО ""НК ""РОСНЕФТЬ""","Восточно-Сургутское месторождение","oil","","нефтяное",61.016307,73.406525,"/oil-gas-field/vostochno-surgutskoe","Vostochno Surgutskoe"
178,"Ханты-Мансийск","ОАО ""Сургутнефтегаз""","Жумажановское месторождение","oil","","нефтяное",62.889586,70.563126,"/oil-gas-field/zhumazhanovskoe","Zhumazhanovskoe"
179,"Сургут","ОАО ""Сургутнефтегаз""","Сурьеганское месторождение","oil","","нефтяное",63.22721,70.649643,"/oil-gas-field/surieganskoe","Surieganskoe"
180,"Сургут","ОАО ""Сургутнефтегаз""","Ватлорское месторождение","oil","","нефтяное",63.190535,70.897694,"/oil-gas-field/vatlorskoe","Vatlorskoe"
181,"Сургут","ОАО ""Сургутнефтегаз""","Южно-Ватлорское месторождение","oil","","нефтяное",63.151874,71.18042,"/oil-gas-field/yuzhno-vatlorskoe","Yuzhno Vatlorskoe"
182,"Сургут","ОАО ""Сургутнефтегаз""","Ай-Пимское месторождение","oil","","нефтяное",62.249305,71.167202,"/oil-gas-field/ai-pimskoe","Ai Pimskoe"
183,"Сургут","ОАО ""Сургутнефтегаз""","Вачимское месторождение","oil-gas","","нефтегазовое",61.826824,72.644348,"/oil-gas-field/vachimskoe","Vachimskoe"
184,"Нарьян-Мар","ООО «ЛУКОЙЛ-Коми»","Имени Ю. Россихина месторождение","oil","","нефтяное",67.946291,55.93689,"/oil-gas-field/rossikhina","Rossikhina"
185,"Вилюйск","ПАО «Якутская топливно-энергетическая компания»","Средневилюйское месторождение","gas-condensate","","газоконденсатное",63.930735,122.678833,"/oil-gas-field/srednevilyuiskoe","Srednevilyuiskoe"
186,"Ноябрьск","ПАО ""НК ""РОСНЕФТЬ""","Барсуковское месторождение","oil-gas","","нефтегазовое",64.390409,75.655975,"/oil-gas-field/barsukovskoe","Barsukovskoe"
187,"Лесосибирск","ПАО ""НК ""РОСНЕФТЬ""","Юрубчено-Тохомское месторождение","oil-gas-condensate","","нефтегазоконденсатное",60.430884,96.241779,"/oil-gas-field/yurubcheno-tokchomskoe","Yurubcheno Tokchomskoe"
188,"Игарка","ПАО ""НК ""РОСНЕФТЬ""","Тагульское месторождение","oil","","нефтяное",67.269323,83.220062,"/oil-gas-field/tagulskoe","Tagulskoe"
189,"Томск","АО НК ""РуссНефть""","Гураринское месторождение","oil-gas","","нефтегазовое",58.502888,79.518356,"/oil-gas-field/gurarinskoe","Gurarinskoe"
190,"Томск","АО НК ""РуссНефть""","Федюшкинское месторождение","oil","","нефтяное",57.806359,76.326828,"/oil-gas-field/fedyushkinskoe","Fedyushkinskoe"
191,"Томск","АО НК ""РуссНефть""","Верхнесалатское месторождение","oil","","нефтяное",58.487324,78.048763,"/oil-gas-field/verkhnesalatskoe","Verkhnesalatskoe"
192,"Нижневартовск","АО НК ""РуссНефть""","Столбовое месторождение","oil","","нефтяное",59.28728,76.297302,"/oil-gas-field/stolbovoe","Stolbovoe"
193,"Нижневартовск","Imperial Energy","Снежное месторождение","oil-gas","","нефтегазовое",58.924854,79.694824,"/oil-gas-field/snezhnoe","Snezhnoe"
194,"Сургут","Imperial Energy","Майское месторождение","oil","","нефтяное",60.390791,72.907505,"/oil-gas-field/mayskoe","Mayskoe"
195,"Нижневартовск","Imperial Energy","Двойное месторождение","oil","","нефтяное",58.826184,79.45364,"/oil-gas-field/dvoynoe","Dvoynoe"
196,"Ноябрьск","ПАО ""НК ""РОСНЕФТЬ""","Фестивальное месторождение","oil","","нефтяное",63.714455,79.499817,"/oil-gas-field/festivalnoe","Festivalnoe"
197,"Нижневартовск","Собственник/Инвестор","Конторовичское (Обское) месторождение","oil","","нефтяное",60.297021,78.11554,"/oil-gas-field/kontorovichskoe","Kontorovichskoe"
198,"Томск","АО «Томскнефть» ВНК","Тагайское месторождение","oil","","нефтяное",57.971701,76.331635,"/oil-gas-field/tagaiskoe","Tagaiskoe"
199,"Томск","АО «Томскнефть» ВНК","Карайское месторождение","oil","","нефтяное",57.699011,75.997925,"/oil-gas-field/karaiskoe","Karaiskoe"
200,"Томск","Собственник/Инвестор","Матюшкинское месторождение","oil","","нефтяное",59.927496,76.981201,"/oil-gas-field/matyushkinskoe","Matyushkinskoe"
201,"Нижневартовск","Собственник/Инвестор","Хвойное месторождение","oil","","нефтяное",59.609086,76.731262,"/oil-gas-field/khvoinoe","Khvoinoe"
202,"Надым","ПАО «НОВАТЭК»","Ярудейское месторождение","oil-gas-condensate","","нефтегазоконденсатное",66.195039,70.995712,"/oil-gas-field/yarudeyskoye","Yarudeyskoye"
203,"Дмитровград","ПАО ""ЛУКОЙЛ""","Аксеновское месторождение","oil","","нефтяное",54.138056,50.638333,"/oil-gas-field/aksenovskoye","Aksenovskoye"
204,"Самара","АО ""Самаранефтегаз""","Семеновское месторождение","gas-condensate","","газоконденсатное",53.502138,51.474123,"/oil-gas-field/semenovskoye","Semenovskoye"
205,"Бованенково","ООО ""Газпром добыча Надым""","Бованенковское месторождение","oil-gas-condensate","","нефтегазоконденсатное",70.453346,68.291016,"/oil-gas-field/bovanenkovskoye","Bovanenkovskoye"
206,"Дмитровград","ПАО ""ЛУКОЙЛ""","Красновское месторождение","oil","","нефтяное",54.235814,50.937123,"/oil-gas-field/krasnovskoe","Krasnovskoe"
207,"Дмитровград","ПАО ""ЛУКОЙЛ""","Полтавское месторождение","oil","","нефтяное",54.134167,50.786667,"/oil-gas-field/poltavskoe","Poltavskoe"
208,"Сургут","ООО «РН-Юганскнефтегаз»","Малобалыкское месторождение","oil","","нефтяное",60.515568,72.291584,"/oil-gas-field/malobalykskoe","Malobalykskoe"
209,"Новый Уренгой","АО «РОСПАН ИНТЕРНЕШНЛ»","Ново-Уренгойский лицензионный участок","gas-condensate","","газоконденсатное",65.893802,77.218094,"/oil-gas-field/novo-urengoysky-license-area","Novo Urengoysky License Area"
210,"Нефтеюганск","ПАО ""НК ""РОСНЕФТЬ""","Омбинское месторождение","oil","","нефтяное",60.956204,73.016312,"/oil-gas-field/ombinskoye","Ombinskoye"
211,"Астрахань","ПАО «Газпром»","Астраханское месторождение","gas-condensate","","газоконденсатное",46.847043,48.147583,"/oil-gas-field/astrakhanskoe","Astrakhanskoe"
212,"Нарьян-Мар","ООО «РН-Северная нефть»","Наульское месторождение","oil","","нефтяное",68.49025,58.765526,"/oil-gas-field/naulskoe","Naulskoe"
213,"Нарьян-Мар","ООО «РН-Северная нефть»","Лабаганское месторождение","oil","","нефтяное",68.376355,59.037008,"/oil-gas-field/labaganskoe","Labaganskoe"
214,"Салым","ПАО АНК «Башнефть»","Соровское месторождение","oil","","нефтяное",59.76262,71.740723,"/oil-gas-field/sorovskoe","Sorovskoe"
215,"Горноправдинск","ПАО ""НК ""РОСНЕФТЬ""","Кондинское месторождение","oil","","нефтяное",60.187675,69.232287,"/oil-gas-field/kondinskoye","Kondinskoye"
216,"Самара","АО ""Самаранефтегаз""","Западно-Коммунарское месторождение","gas-oil","","газонефтяное",53.0175,50.824722,"/oil-gas-field/west-kommunarskoye","West Kommunarskoye"
217,"Петропавловск-Камчатский","ПАО «Газпром»","Кшукское месторождение","gas-condensate","","газоконденсатное",54.775833,155.785556,"/oil-gas-field/kshukskoe","Kshukskoe"
218,"Петропавловск-Камчатский","ПАО «Газпром»","Ниже-Квакчинское месторождение","gas-condensate","","газоконденсатное",54.710278,155.829722,"/oil-gas-field/lower-kvakchinskoye","Lower Kvakchinskoye"
219,"Пеледуй","ПАО «Газпром»","Чаяндинское месторождение","oil-gas-condensate","","нефтегазоконденсатное",60.212778,111.586111,"/oil-gas-field/chayandinskoye","Chayandinskoye"
220,"Усть-Кут","ПАО «Газпром»","Ковыктинское месторождение","gas-condensate","","газоконденсатное",55.358056,106.106667,"/oil-gas-field/kovykta","Kovykta"
221,"Тарко-Сале","ООО ""Газпром добыча Ноябрьск""","Западно-Таркосалинское месторождение","oil-gas-condensate","","нефтегазоконденсатное",64.857222,77.181944,"/oil-gas-field/west-tarkosalinskoye","West Tarkosalinskoye"
222,"Губкинский","ООО ""Газпром добыча Ноябрьск""","Комсомольское месторождение","oil-gas-condensate","","нефтегазоконденсатное",64.329722,76.19585,"/oil-gas-field/komsomolskoye","Komsomolskoye"
223,"Новый Уренгой","ООО ""Газпром добыча Надым""","Ямсовейское месторождение","oil-gas-condensate","","нефтегазоконденсатное",65.486481,75.524139,"/oil-gas-field/yamsoveiskoye","Yamsoveiskoye"
224,NA,"Eni","Месторождение Zohr","gas-condensate","","газоконденсатное",33.001754,32.494812,"/oil-gas-field/zohr","Zohr"
225,"Новый Уренгой","ООО ""Газпром добыча Надым""","Юбилейное месторождение","oil-gas-condensate","","нефтегазоконденсатное",65.980453,75.742149,"/oil-gas-field/jubileynoe","Jubileynoe"
226,"Уренгой","ООО ""Газпром добыча Ямбург""","Заполярное месторождение","oil-gas-condensate","","нефтегазоконденсатное",66.805165,79.60144,"/oil-gas-field/zapolyarnoye","Zapolyarnoye"
227,"Губкинский","ЗАО «Пургаз»","Губкинское месторождение","oil-gas-condensate","","нефтегазоконденсатное",64.5741,76.672211,"/oil-gas-field/gubkinskoe","Gubkinskoe"
228,"Нижневартовск","ОАО ""НГК ""Славнефть""","Узунское месторождение","oil","","нефтяное",61.511561,77.359543,"/oil-gas-field/uzunskoe","Uzunskoe"
229,"Южно-Сахалинск","Эксон Нефтегаз Лимитед","Месторождение Одопту","oil","","нефтяное",53.358056,143.179444,"/oil-gas-field/odoptu","Odoptu"
230,"Южно-Сахалинск","Эксон Нефтегаз Лимитед","Месторождение Аркутун-Даги","oil-gas-condensate","","нефтегазоконденсатное",52.478333,143.719444,"/oil-gas-field/arkutun-dagi","Arkutun Dagi"
231,"Екатеринбург","ООО ""Газпром добыча Ноябрьск""","Бухаровское месторождение","gas-condensate","","газоконденсатное",56.831944,58.876389,"/oil-gas-field/bukharovskoe","Bukharovskoe"
232,"Новый Уренгой","ЗАО «Ямалгазинвест»","Уренгойское месторождение Ямалгазинвест","oil-gas-condensate","","нефтегазоконденсатное",66.099381,76.90773,"/oil-gas-field/urengoyskoe-yamalgazinvest","Urengoyskoe Yamalgazinvest"
233,"Новый Уренгой","АО «РОСПАН ИНТЕРНЕШНЛ»","Восточно-Уренгойский лицензионный участок","oil-gas-condensate","","нефтегазоконденсатное",66.341363,77.842255,"/oil-gas-field/east-urengoy-license-area","East Urengoy License Area"
234,"Ханты-Мансийск","ПАО ""НК ""РОСНЕФТЬ""","Чапровское месторождение","oil","","нефтяное",60.225556,69.753056,"/oil-gas-field/chaprovskoye","Chaprovskoye"
235,"Салым","ООО «РН «Уватнефтегаз»","Тямкинское месторождение","oil","","нефтяное",59.064444,71.861389,"/oil-gas-field/tyamkinskoe","Tyamkinskoe"
236,"Бузулук","АО «Оренбургнефть»","Баклановское меторождение","oil","","нефтяное",52.673056,53.027222,"/oil-gas-field/baklanovskoe","Baklanovskoe"
237,"Ханты-Мансийск","ОАО ""Сургутнефтегаз""","Южно-Ляминское месторождение","oil","","нефтяное",61.869444,69.833889,"/oil-gas-field/yuzhno-lyaminskoe","Yuzhno Lyaminskoe"
239,"Ноябрьск","ООО «ЛУКОЙЛ-Западная Сибирь»","Восточно-Перевальное месторождение","gas-oil","","газонефтяное",63.244167,72.862222,"/oil-gas-field/vostochno-perevalnoe","Vostochno Perevalnoe"
240,"Бузулук","АО «РИТЭК»","Западно-Бимское месторождение","oil","","нефтяное",56.231944,53.501944,"/oil-gas-field/zapadno-bimskoe","Zapadno Bimskoe"
241,"Оренбург","Собственник/Инвестор","Майорское месторождение","oil","","нефтяное",52.013611,55.199444,"/oil-gas-field/mayorskoe","Mayorskoe"
242,"Надым","ПАО «Газпром»","Месторождение Каменномысское-море","gas","","газовое",68.287778,73.683889,"/oil-gas-field/kamennomisskoe-more","Kamennomisskoe More"
243,"Усинск","ООО ""СК ""РУСВЬЕТПЕТРО""","Северо-Хоседаюское месторождение","oil","","нефтяное",67.865,58.874722,"/oil-gas-field/severo-hosedayskoe","Severo Hosedayskoe"
244,"Астрахань","ООО ""Каспийская нефтяная компания""","Западно-ракушечное месторождение","oil","","нефтяное",45.215833,48.111667,"/oil-gas-field/zapadno-rakushechnoe","Zapadno Rakushechnoe"
245,"Астрахань","ПАО ""ЛУКОЙЛ""","Месторождение им. Ю.С. Кувыкина","oil-gas-condensate","","нефтегазоконденсатное",44.417778,48.7075,"/oil-gas-field/kuvikina","Kuvikina"
246,"Астрахань","Собственник/Инвестор","Центральное месторождение","oil-gas-condensate","","нефтегазоконденсатное",42.721667,49.639444,"/oil-gas-field/centralnoe","Centralnoe"
247,"Астрахань","ПАО ""ЛУКОЙЛ""","Месторождение 170 км","oil-gas-condensate","","нефтегазоконденсатное",44.125833,49.0025,"/oil-gas-field/170-km","170 Km"
248,"Ноябрьск","АО «Газпромнефть-Ноябрьскнефтегаз»","Отдельное месторождение","oil","","нефтяное",62.979722,74.834444,"/oil-gas-field/otdelnoe","Otdelnoe"
249,NA,"Собственник/Инвестор","Месторождение Урга","gas","","газовое",43.906056,58.568115,"/oil-gas-field/urga","Urga"
250,"Тольятти","АО «РИТЭК»","Казаковское месторождение","oil","","нефтяное",54.066667,50.366667,"/oil-gas-field/kazakovskoe","Kazakovskoe"
251,"Новый Уренгой","ООО ""Газпром добыча Надым""","Медвежье месторождение","oil-gas-condensate","","нефтегазоконденсатное",66.273333,74.221666,"/oil-gas-field/medvezhye","Medvezhye"
252,"пгт Ноглики","ПАО «Газпром»","Киринское месторождение","gas-condensate","","газоконденсатное",51.498888,143.838888,"/oil-gas-field/kirinskoye","Kirinskoye"
253,"Усинск","ООО «ЛУКОЙЛ-Коми»","Баяндыское месторождение","oil","","нефтяное",66.459444,56.432777,"/oil-gas-field/bayandskoe","Bayandskoe"
254,"Нарьян-Мар","ООО «ЛУКОЙЛ-Коми»","Восточно-Сарутаюское месторождение","oil","","нефтяное",67.775277,55.991944,"/oil-gas-field/vostochno-sarutayuskoye","Vostochno Sarutayuskoye"
255,"Самара","ПАО «Татнефть»","Иргизское месторождение","oil","","нефтяное",52.283337,50.864478,"/oil-gas-field/irgizskoe","Irgizskoe"
256,"Ямбург","ООО ""Газпром добыча Ямбург""","Ямбургское месторождение","oil-gas-condensate","","нефтегазоконденсатное",67.978303,75.88068,"/oil-gas-field/yamburgskoe","Yamburgskoe"
257,"Новый Уренгой","ПАО ""НК ""РОСНЕФТЬ""","Пырейное месторождение","gas-condensate","","газоконденсатное",65.585646,77.546456,"/oil-gas-field/pyrejnoe","Pyrejnoe"
258,"Новый Уренгой","ПАО «Газпром»","Песцовое месторождение","oil-gas-condensate","","нефтегазоконденсатное",65.923055,75.595556,"/oil-gas-field/pestsovoye","Pestsovoye"
259,"Воркута","ПАО ""НК ""РОСНЕФТЬ""","Хасырейское месторождение","oil","","нефтяное",67.766667,60.543665,"/oil-gas-field/khasyrejskoe","Khasyrejskoe"
260,"Воркута","ПАО ""НК ""РОСНЕФТЬ""","Черпаюское месторождение","oil","","нефтяное",67.556546,60.545355,"/oil-gas-field/cherpayuskoye","Cherpayuskoye"
261,"Новый Уренгой","ООО «РН-Пурнефтегаз»","Кынское месторождение","gas-condensate","","газоконденсатное",65.153464,80.594364,"/oil-gas-field/kynskoye","Kynskoye"
262,"Нарьян-Мар","ООО «ЛУКОЙЛ-Коми»","Торавейское месторождение","oil","","нефтяное",68.686944,58.353333,"/oil-gas-field/toraveyskoye","Toraveyskoye"
263,"Губкинский","ООО «РН-Пурнефтегаз»","Комсомольское месторождение","oil-gas-condensate","","нефтегазоконденсатное",64.254345,76.126364,"/oil-gas-field/komsomolskoye-rn","Komsomolskoye Rn"
265,"Нарьян-Мар","ООО «ЛУКОЙЛ-Коми»","Южно-Шапкинское месторождение","oil-gas-condensate","","нефтегазоконденсатное",67.383333,54.503252,"/oil-gas-field/yuzhno-shapkinskoye","Yuzhno Shapkinskoye"
266,"Нарьян-Мар","ПАО ""ЛУКОЙЛ""","Тэдинское месторождение","oil","","нефтяное",67.957656,57.783333,"/oil-gas-field/tedinskoye","Tedinskoye"
267,"Усинск","ООО «ЛУКОЙЛ-Коми»","Возейское месторождение","oil-gas-condensate","","нефтегазоконденсатное",66.933333,56.616667,"/oil-gas-field/vozeyskoye","Vozeyskoye"
268,"Салехард","ООО «Газпромнефть-Оренбург»","Средне-Хулымское месторождение","oil","","нефтяное",64.533333,71.297811,"/oil-gas-field/sredne-khulymskoye","Sredne Khulymskoye"
269,"Тобольск","ПАО ""НК ""РОСНЕФТЬ""","Кальчинское месторождение","oil","","нефтяное",59.106396,69.969237,"/oil-gas-field/kalchinskiy","Kalchinskiy"
270,"Новый Уренгой","ООО «Газпромнефть-Оренбург»","Сандибинское месторождение","oil","","нефтяное",66.720278,73.204722,"/oil-gas-field/sandibinskoye","Sandibinskoye"
271,"Славянск-на-Кубани","ПАО «Газпром»","Песчаное месторождение","oil-gas-condensate","","нефтегазоконденсатное",45.453611,37.738056,"/oil-gas-field/peschanoye","Peschanoye"
272,"Ханты-Мансийск","ООО «Газпромнефть-Оренбург»","Кислорское месторождение","oil","","нефтяное",63.583336,66.397811,"/oil-gas-field/kislorskoye","Kislorskoye"
273,"Ханты-Мансийск","ПАО ""ЛУКОЙЛ""","Красноленинское месторождение","oil-gas-condensate","","нефтегазоконденсатное",61.653611,66.671389,"/oil-gas-field/krasnoleninskoye","Krasnoleninskoye"
274,"Нягань","ООО «Газпромнефть-Оренбург»","Сергинское месторождение","oil","","нефтяное",62.425797,65.4568,"/oil-gas-field/serginskoye","Serginskoye"
275,"Нижневартовск","ПАО ""НК ""РОСНЕФТЬ""","Северо-Хохряковское месторождение","oil","","нефтяное",62.149147,79.459992,"/oil-gas-field/severo-khokhryakovskoye","Severo Khokhryakovskoye"
276,"Нарьян-Мар","ООО ""СК ""РУСВЬЕТПЕТРО""","Висовое месторождение","oil","","нефтяное",67.034509,58.595181,"/oil-gas-field/visovoye","Visovoye"
277,"Нарьян-Мар","ООО ""СК ""РУСВЬЕТПЕТРО""","Верхнеколвинское месторождение","oil","","нефтяное",67.983889,58.417222,"/oil-gas-field/verkhnekolvinskoye","Verkhnekolvinskoye"
278,"Нарьян-Мар","ООО ""СК ""РУСВЬЕТПЕТРО""","Западно-Хоседаюское месторождение","oil","","нефтяное",67.835278,58.423922,"/oil-gas-field/zapadno-khosedayuskoye","Zapadno Khosedayuskoye"
279,"Нарьян-Мар","ООО ""СК ""РУСВЬЕТПЕТРО""","Сихорейское месторождение","oil","","нефтяное",67.750556,58.000556,"/oil-gas-field/sikhoreyskiy","Sikhoreyskiy"
280,"Нарьян-Мар","ООО ""СК ""РУСВЬЕТПЕТРО""","Восточно-Сихорейское месторождение","oil","","нефтяное",67.775556,58.560055,"/oil-gas-field/vostochno-sikhoreyskoye","Vostochno Sikhoreyskoye"
281,"Нарьян-Мар","ООО ""СК ""РУСВЬЕТПЕТРО""","Северо-Сихорейское месторождение","oil","","нефтяное",67.882222,58.065556,"/oil-gas-field/severo-sikhoreyskoye","Severo Sikhoreyskoye"
282,"Нарьян-Мар","ООО ""СК ""РУСВЬЕТПЕТРО""","Северо-Ошкотынское месторождение","oil","","нефтяное",67.766667,57.783333,"/oil-gas-field/severo-oshkotynskoye","Severo Oshkotynskoye"
283,"Нарьян-Мар","ООО ""СК ""РУСВЬЕТПЕТРО""","Сюрхаратинское месторождение","oil","","нефтяное",67.991946,57.757769,"/oil-gas-field/syurkharatinskoye","Syurkharatinskoye"
284,"Нарьян-Мар","ООО ""СК ""РУСВЬЕТПЕТРО""","Пюсейское месторождение","oil","","нефтяное",67.996389,57.97304,"/oil-gas-field/pyuseyskoye","Pyuseyskoye"
285,"Нарьян-Мар","ООО ""СК ""РУСВЬЕТПЕТРО""","Южно-Сюрхаратинское месторождение","oil","","нефтяное",67.927232,57.708897,"/oil-gas-field/yuzhno-syurkharatinskoye","Yuzhno Syurkharatinskoye"
286,"Нарьян-Мар","ООО ""СК ""РУСВЬЕТПЕТРО""","Урернырдское месторождение","oil","","нефтяное",67.942222,57.872778,"/oil-gas-field/urernyrdskoye","Urernyrdskoye"
287,"Нарьян-Мар","ООО ""СК ""РУСВЬЕТПЕТРО""","Восточно-Янемдейское месторождение","oil","","нефтяное",67.791667,57.49,"/oil-gas-field/vostochno-yanemdeyskoye","Vostochno Yanemdeyskoye"
288,"Нарьян-Мар","ПАО ""НК ""РОСНЕФТЬ""","Пасседское месторождение","oil","","нефтяное",68.582222,58.282222,"/oil-gas-field/passedskoye","Passedskoye"
289,"Баку","Bp Plc","Месторождение Шах-Дениз","gas-condensate","","газоконденсатное",39.966736,50.216142,"/oil-gas-field/shakh-deniz","Shakh Deniz"
290,"Оренбург","АО «Оренбургнефть»","Рыбкинское месторождение","oil","","нефтяное",51.85338,53.83665,"/oil-gas-field/rybkinskoye","Rybkinskoye"
291,"Нефтеюганск","ПАО ""НК ""РОСНЕФТЬ""","Южно-Сургутское месторождение","oil","","нефтяное",61.16245,72.997971,"/oil-gas-field/yuzhno-surgutskoye","Yuzhno Surgutskoye"
292,"Нурлат","ПАО «Татнефть»","Вишнево-Полянское месторождение","oil","","нефтяное",54.533333,50.747811,"/oil-gas-field/vishnevo-polyanskoye","Vishnevo Polyanskoye"
293,"Новый Уренгой","ПАО «Газпром»","Малыгинское месторождение","gas-condensate","","газоконденсатное",72.25,70.583333,"/oil-gas-field/malyginskoye","Malyginskoye"
294,NA,"АО «Узбекнефтегаз»","Месторождения Шахпахты","gas-condensate","","газоконденсатное",42.653026,56.386471,"/oil-gas-field/shakhpakhty","Shakhpakhty"
296,"Оренбург","АО НК ""РуссНефть""","Яснополянское месторождение","gas-oil","","газонефтяное",51.667307,52.981582,"/oil-gas-field/yasnopolyanskoye","Yasnopolyanskoye"
297,"Тюмень","ООО «РН «Уватнефтегаз»","Южно-Петьёгское месторождение","oil","","нефтяное",59.132975,71.723335,"/oil-gas-field/yuzhno-petyogskoye","Yuzhno Petyogskoye"
298,"Сургут","ПАО ""НК ""РОСНЕФТЬ""","Угутское месторождения","oil","","нефтяное",60.516667,74.15,"/oil-gas-field/ugutskoe","Ugutskoe"
299,"Нижневартовск","АО НК ""РуссНефть""","Тагринское месторождение","oil-gas-condensate","","нефтегазоконденсатное",62.426625,78.152618,"/oil-gas-field/tagrinskoye","Tagrinskoye"
300,"Пеледуй","ОАО ""Сургутнефтегаз""","Талаканское месторождение","oil-gas-condensate","","нефтегазоконденсатное",59.819971,110.87677,"/oil-gas-field/talakanskoe","Talakanskoe"
301,"Нижневартовск","АО НК ""РуссНефть""","Варьеганское месторождение","oil-gas-condensate","","нефтегазоконденсатное",62.100833,77.554722,"/oil-gas-field/varjeganskoe","Varjeganskoe"
302,"Нефтекамск","ПАО АНК «Башнефть»","Арланское месторождение","oil","","нефтяное",56.134167,54.049167,"/oil-gas-field/arlanskoe","Arlanskoe"
303,"Нефтеюганск","ПАО ""НК ""РОСНЕФТЬ""","Усть-Балыкское месторождение","oil","","нефтяное",61.049167,72.640556,"/oil-gas-field/ust-balykskoe","Ust Balykskoe"
304,"Оха","ПАО ""НК ""РОСНЕФТЬ""","Месторождение Усть-Эвай","gas-condensate","","газоконденсатное",52.284444,143.078611,"/oil-gas-field/ust-evai","Ust Evai"
305,"Бованенково","ПАО «Газпром»","Крузенштернское месторождение","gas-condensate","","газоконденсатное",70.601389,67.192778,"/oil-gas-field/kruzenshternskoe","Kruzenshternskoe"
306,"Бованенково","ПАО «Газпром»","Харасавэйское месторождение","gas-condensate","","газоконденсатное",71.193178,66.86245,"/oil-gas-field/kharasaveyskoe","Kharasaveyskoe"
307,"Варандей","ООО «ЛУКОЙЛ-Коми»","Варандейское месторождение","oil","","нефтяное",68.783957,58.182907,"/oil-gas-field/varandeyskoe","Varandeyskoe"
308,"Оренбург","АО «Оренбургнефть»","Кирсановское месторождение","oil","","нефтяное",54.268611,52.9825,"/oil-gas-field/kirsanovskoe","Kirsanovskoe"
309,"Когалым","ООО ""ЛУКойл-Аик""","Когалымское месторождение","oil","","нефтяное",62.4425,73.958611,"/oil-gas-field/kogalymskoye","Kogalymskoye"
310,"Когалым","ООО «ЛУКОЙЛ-Западная Сибирь»","Тевлинско-Русскинское месторождение","oil","","нефтяное",62.585122,73.518448,"/oil-gas-field/tevlinsko-russinskoe","Tevlinsko Russinskoe"
311,"Когалым","ООО «ЛУКОЙЛ-Западная Сибирь»","Вать-Еганское месторождение","oil","","нефтяное",62.216389,75.175,"/oil-gas-field/vat-eganskoe","Vat Eganskoe"
312,"Когалым","ООО «ЛУКОЙЛ-Западная Сибирь»","Повховское месторождение","oil","","нефтяное",62.441111,75.919722,"/oil-gas-field/povkhovskoye","Povkhovskoye"
313,"Когалым","ООО «ЛУКОЙЛ-Западная Сибирь»","Южно-Ягунское месторождение","oil","","нефтяное",62.446111,74.280833,"/oil-gas-field/yuzhno-yagunskoye","Yuzhno Yagunskoye"
314,"Лангепас","ООО «ЛУКОЙЛ-Западная Сибирь»","Покачевское месторождение","oil","","нефтяное",61.738611,75.234167,"/oil-gas-field/pokachevskoye","Pokachevskoye"
315,"Лангепас","ООО «ЛУКОЙЛ-Западная Сибирь»","Урьевское месторождение","oil","","нефтяное",61.345833,75.301111,"/oil-gas-field/urievskoye","Urievskoye"
316,"Когалым","ООО «ЛУКОЙЛ-Западная Сибирь»","Нонг-Еганское месторождение","oil","","нефтяное",61.901944,74.875556,"/oil-gas-field/nong-eganskoe","Nong Eganskoe"
317,"Когалым","ООО «ЛУКОЙЛ-Западная Сибирь»","Дружное месторождение","oil","","нефтяное",62.406276,74.783936,"/oil-gas-field/druzhnoe","Druzhnoe"
318,"Лангепас","ООО «ЛУКОЙЛ-Западная Сибирь»","Нивагальское месторождение","oil","","нефтяное",61.49256,74.915772,"/oil-gas-field/nivagalskoe","Nivagalskoe"
319,"Лангепас","ООО «ЛУКОЙЛ-Западная Сибирь»","Поточное месторождение","oil","","нефтяное",61.470267,75.531006,"/oil-gas-field/potochnoe","Potochnoe"
320,"Лангепас","ООО «ЛУКОЙЛ-Западная Сибирь»","Кечимовское месторождение","oil","","нефтяное",61.714611,74.720764,"/oil-gas-field/kechimovskoe","Kechimovskoe"
321,"Харьяга","ООО «ЛУКОЙЛ-Коми»","Ошское месторождение","oil","","нефтяное",67.033889,56.668333,"/oil-gas-field/oshskoe","Oshskoe"
322,"Харьяга","ООО «ЛУКОЙЛ-Коми»","Восточно-Ламбейшорское месторождение","oil","","нефтяное",66.857222,56.138611,"/oil-gas-field/vostochno-lambeishorskoe","Vostochno Lambeishorskoe"
323,"Печора","ООО «ЛУКОЙЛ-Коми»","Кыртаельское месторождение","oil-gas-condensate","","нефтегазоконденсатное",64.996944,57.007222,"/oil-gas-field/kyrtaelskoe","Kyrtaelskoe"
324,"Усолье","ООО ""ЛУКОЙЛ-ПЕРМЬ""","Уньвинское месторождение","oil","","нефтяное",59.164167,56.827222,"/oil-gas-field/uunvinskoye","Uunvinskoye"
325,"Чайковский","ООО ""ЛУКОЙЛ-ПЕРМЬ""","Шагиртско-Гожанское месторождение","oil","","нефтяное",56.516944,55.185556,"/oil-gas-field/shagirt-gozhanskoe","Shagirt Gozhanskoe"
326,"Усолье","ООО ""ЛУКОЙЛ-ПЕРМЬ""","Сибирское месторождение","oil","","нефтяное",59.275,56.984722,"/oil-gas-field/sibirskoe","Sibirskoe"
327,"Саратов","ПАО ""ЛУКОЙЛ""","Памятно-Сасовское месторождение","oil","","нефтяное",50.756389,45.126667,"/oil-gas-field/pamyatno-sasovskoe","Pamyatno Sasovskoe"
328,"Калининград","ПАО ""ЛУКОЙЛ""","Кравцовское месторождение","oil","","нефтяное",55.3225,20.555556,"/oil-gas-field/kravtsovskoye","Kravtsovskoye"
329,"Новый Уренгой","ООО «ЛУКОЙЛ-Западная Сибирь»","Находкинское месторождение","oil-gas","","нефтегазовое",68.006389,77.982222,"/oil-gas-field/nakhodkinskoye","Nakhodkinskoye"
330,"Сабетта","ООО ""Арктик СПГ 3""","Северо-Обское месторождение (лицензионный участок)","gas-condensate","","газоконденсатное",72.5325,73.660556,"/oil-gas-field/ob-north-license-area","Ob North License Area"
331,"Мунгуй","АО ""ТАЙМЫРНЕФТЕГАЗ""","Пайяхское месторождение","oil","","нефтяное",70.491111,84.340833,"/oil-gas-field/payakhskoe","Payakhskoe"
332,"Новый Уренгой","ПАО «Газпром»","Ен-Яхинское месторождение","oil-gas-condensate","","нефтегазоконденсатное",67.008501,76.296616,"/oil-gas-field/yon-yakhinskoye","Yon Yakhinskoye"
333,"Пыть-Ях","ПАО ""НК ""РОСНЕФТЬ""","Среднебалыкское месторождение","oil","","нефтяное",60.514047,72.555428,"/oil-gas-field/sredne-balykskskoe","Sredne Balykskskoe"
334,"Нарьян-Мар","АО «Независимая нефтегазовая компания»","Колвинское месторождение","oil","","нефтяное",67.469444,59.458889,"/oil-gas-field/kolvinskoe","Kolvinskoe"
335,"Уренгой","ОАО «Севернефтегазпром»","Южно-Русское месторождение (ЮРНГКМ)","oil-gas-condensate","","нефтегазоконденсатное",65.934855,80.275555,"/oil-gas-field/south-russkoe","South Russkoe"
336,"Тарко-Сале","ПАО «НОВАТЭК»","Термокарстовое месторождение","gas-condensate","","газоконденсатное",65.405556,82.474444,"/oil-gas-field/termokarstovoye","Termokarstovoye"
337,"пгт Ноглики","ООО «Газпромнефть-Сахалин»","Месторождение Тритон (Аяшский участок)","oil","","нефтяное",52.519564,144.140625,"/oil-gas-field/triton","Triton"
338,"Нижневартовск","ПАО ""НК ""РОСНЕФТЬ""","Хохряковское месторождение","oil","","нефтяное",61.524005,79.374847,"/oil-gas-field/khokhryakovskoye","Khokhryakovskoye"
339,"Нефтеюганск","ПАО ""НК ""РОСНЕФТЬ""","Салымское месторождение (Лемпинская площадь)","oil","","нефтяное",60.849594,71.244278,"/oil-gas-field/salymskoe","Salymskoe"
340,"Нижневартовск","ПАО ""НК ""РОСНЕФТЬ""","Киняминское месторождение","oil","","нефтяное",60.497138,74.70643,"/oil-gas-field/kinyaminskoe","Kinyaminskoe"
341,"Усть-Кут","ООО «ИНК» (Иркутская нефтяная компания)","Марковское месторождение","oil-gas-condensate","","нефтегазоконденсатное",57.335278,106.73,"/oil-gas-field/markovskoe","Markovskoe"
342,"Яр-Сале","ПАО «Газпром»","Северо-Тамбейский лицензионный участок","gas-condensate","","газоконденсатное",71.732728,71.985598,"/oil-gas-field/severo-tambeiskoe","Severo Tambeiskoe"
343,NA,"ПАО «Газпром»","Русановский лицензионный участок","gas-condensate","","газоконденсатное",73.366667,65.616667,"/oil-gas-field/rusanovskoe","Rusanovskoe"
344,NA,"ПАО «Газпром»","Ленинградское месторождение","gas-condensate","","газоконденсатное",72.358889,65.620833,"/oil-gas-field/leningradskoe","Leningradskoe"
345,"Ленск","ПАО «Газпром»","Тас-Юряхское месторождение","oil-gas-condensate","","нефтегазоконденсатное",61.75,113.583333,"/oil-gas-field/tas-uryakhskoe","Tas Uryakhskoe"
346,"Нефтеюганск","ПАО ""НК ""РОСНЕФТЬ""","Петелинское месторождение","oil-gas","","нефтегазовое",60.600556,71.948889,"/oil-gas-field/petelinskoe","Petelinskoe"
347,"Нефтеюганск","Собственник/Инвестор","Мултановское месторождение","oil","","нефтяное",60.050622,73.49888,"/oil-gas-field/multanovskoe","Multanovskoe"
348,"Нягань","ПАО ""ЛУКОЙЛ""","Западно-Тугровское месторождение","oil-gas","","нефтегазовое",61.668128,64.673424,"/oil-gas-field/zapadno-tugrovskoe","Zapadno Tugrovskoe"
349,NA,"ПАО ""ЛУКОЙЛ""","Восточно-Тугровское месторождение","oil-gas","","нефтегазовое",61.680556,64.848889,"/oil-gas-field/vostochno-tugrovskoe","Vostochno Tugrovskoe"
350,"Ханты-Мансийск","ООО «ЛУКОЙЛ-Западная Сибирь»","Ловинское месторождение","oil","","нефтяное",61.244313,65.016403,"/oil-gas-field/lovinskoe","Lovinskoe"
351,"Нижневартовск","Собственник/Инвестор","Южно-Гавриковское месторождение","oil-gas","","нефтегазовое",58.767222,74.094722,"/oil-gas-field/yuzhno-gavrikovskoe","Yuzhno Gavrikovskoe"
352,NA,"АО «Томскнефть» ВНК","Герасимовское месторождение","oil-gas-condensate","","нефтегазоконденсатное",57.650003,78.914478,"/oil-gas-field/gerasimovskoe","Gerasimovskoe"
353,"Усинск","ООО «ЛУКОЙЛ-Коми»","Южно-Юрьяхинское месторождение","oil-gas","","нефтегазовое",66.718365,55.001078,"/oil-gas-field/yuzhno-yuryakhinskoe","Yuzhno Yuryakhinskoe"
354,"Нарьян-Мар","ООО «ЛУКОЙЛ-Коми»","Пашшорское месторождение","oil","","нефтяное",67.016667,54.797811,"/oil-gas-field/pashshorskoe","Pashshorskoe"
355,"Усинск","ООО «ЛУКОЙЛ-Коми»","Месторождение им. Алабушина","oil","","нефтяное",66.251667,56.623333,"/oil-gas-field/im-alabushina","Im Alabushina"
356,"Иркутск","ПАО «Газпром нефть»","Игнялинское месторождение","oil-gas-condensate","","нефтегазоконденсатное",66.279444,56.43,"/oil-gas-field/ignyalinskoe","Ignyalinskoe"
357,"Ленск","ПАО «Газпром нефть»","Тымпучиканское месторождение","oil-gas-condensate","","нефтегазоконденсатное",60.536908,110.552006,"/oil-gas-field/tympuchikanskoe","Tympuchikanskoe"
358,"Ленск","ПАО «Газпром нефть»","Вакунайское месторождение","oil-gas-condensate","","нефтегазоконденсатное",60.464444,109.756389,"/oil-gas-field/vakunaiskoe","Vakunaiskoe"
359,"Якутск","АО «САХАТРАНСНЕФТЕГАЗ»","Среднетюнгское месторождение","gas-condensate","","газоконденсатное",64.528835,120.495386,"/oil-gas-field/srednetyungskoe","Srednetyungskoe"
360,"Ленск","ПАО «Газпром»","Верхневилючанское месторождение","oil-gas","","нефтегазовое",61.730833,115.508889,"/oil-gas-field/verkhnevilyuchanskoe","Verkhnevilyuchanskoe"
361,"Норильск","ПАО «Газпром»","Северо-Соленинское месторождение","gas-condensate","","газоконденсатное",69.165,81.123648,"/oil-gas-field/severo-soleninskoe","Severo Soleninskoe"
362,"Бузулук","АО «Оренбургнефть»","Бобровское месторождение","oil-gas","","нефтегазовое",52.621389,51.921389,"/oil-gas-field/bobrovskoe","Bobrovskoe"
363,"Тобольск","ООО «РН «Уватнефтегаз»","Тальцийское месторождение","oil","","нефтяное",59.039167,72.807778,"/oil-gas-field/talciiskoe","Talciiskoe"
364,"Лабытнанги","ПАО «НОВАТЭК»","Мало-Ямальский лицензионный участок","gas-condensate","","газоконденсатное",68.261667,71.447778,"/oil-gas-field/malo-yamalskoe","Malo Yamalskoe"
365,"Лабытнанги","ООО «Газпромнефть-Ямал»","Южно-Каменномысский лицензионный участок","oil","","нефтяное",67.886111,72.459444,"/oil-gas-field/yuzhno-kamennomysskoe","Yuzhno Kamennomysskoe"
366,"Лабытнанги","ПАО «Газпром нефть»","Каменномысский лицензионный участок","oil-gas-condensate","","нефтегазоконденсатное",68.536667,73.449722,"/oil-gas-field/kamennomysskoe","Kamennomysskoe"
367,"Лабытнанги","ПАО «Газпром нефть»","Суровый лицензионный часток","oil","","нефтяное",67.071111,71.555556,"/oil-gas-field/surovoe","Surovoe"
368,"Кунгур","ООО ""ЛУКОЙЛ-ПЕРМЬ""","Кокуйское месторождение","oil-gas-condensate","","нефтегазоконденсатное",57.207778,56.616389,"/oil-gas-field/kokuiskoe","Kokuiskoe"
369,NA,"ООО «Газпром нефть шельф»","Долгинское месторождение","oil","","нефтяное",69.664722,55.699722,"/oil-gas-field/dolginskoe","Dolginskoe"
370,"Ижевск","ОАО ""Удмуртнефть""","Ижевском месторождении","oil","","нефтяное",56.651389,53.363056,"/oil-gas-field/izhevskoe","Izhevskoe"
371,"Нижневартовск","ОАО ""НГК ""Славнефть""","Ватинское месторождение","oil","","нефтяное",61.112778,76.010556,"/oil-gas-field/vatinskoe","Vatinskoe"
372,"Новый Уренгой","ОАО ""Арктикгаз"" (""АРКТИЧЕСКАЯ ГАЗОВАЯ КОМПАНИЯ"")","Северо-Есетинское месторождение","oil-gas-condensate","","нефтегазоконденсатное",66.171111,77.575278,"/oil-gas-field/severo-esetinskoe","Severo Esetinskoe"
373,"Воркута","ПАО ""НК ""РОСНЕФТЬ""","Нядейюское месторождение","oil","","нефтяное",67.846111,60.568889,"/oil-gas-field/nyadeiyuskoe","Nyadeiyuskoe"
374,"Когалым","ООО «ЛУКОЙЛ-Западная Сибирь»","Имилорское месторождение","oil","","нефтяное",62.863611,73.843333,"/oil-gas-field/imilorskoe","Imilorskoe"
375,"Сургут","ПАО ""ЛУКОЙЛ""","Чумпасское месторождение","oil","","нефтяное",61.240278,75.1075,"/oil-gas-field/chumpasskoe","Chumpasskoe"
376,"Сосногорск","ООО «ЛУКОЙЛ-Коми»","Пашнинское месторождение","oil-gas-condensate","","нефтегазоконденсатное",63.256667,56.443889,"/oil-gas-field/pashninskoe","Pashninskoe"
377,"Мелеуз","АО «Оренбургнефть»","Волостновское месторождение","oil","","нефтяное",52.981944,56.193889,"/oil-gas-field/volostnovskoe","Volostnovskoe"
378,NA,"АО НК ""РуссНефть""","Верхне-Шапшинское месторождение","oil","","нефтяное",60.750438,70.21019,"/oil-gas-field/verkhne-shapshynskoe","Verkhne Shapshynskoe"
379,"Соликамск","ООО ""ЛУКОЙЛ-ПЕРМЬ""","Жилинское месторождение","oil-gas-condensate","","нефтегазоконденсатное",59.588191,57.131985,"/oil-gas-field/zhilinskoe","Zhilinskoe"
380,"Печора","ООО «Газпром добыча Краснодар»","Печорогородское месторождение","gas-condensate","","газоконденсатное",65.116667,57.231145,"/oil-gas-field/pechorogorodskoe","Pechorogorodskoe"
381,"Уват","ООО «РН «Уватнефтегаз»","Немчиновское месторождение","oil","","нефтяное",59.193056,71.393889,"/oil-gas-field/nemchinovskoe","Nemchinovskoe"
382,"Нижневартовск","АО «Томскнефть» ВНК","Трайгородско-Кондаковское месторождение","oil","","нефтяное",59.437222,78.706389,"/oil-gas-field/traigorodsko-kondakovskoe","Traigorodsko Kondakovskoe"
383,"Усинск","ПАО ""НК ""РОСНЕФТЬ""","Южно-Баганское месторождение","oil","","нефтяное",66.384722,58.146111,"/oil-gas-field/yuzhnobaganskoe","Yuzhnobaganskoe"
384,"Сургут","ПАО ""НК ""РОСНЕФТЬ""","Кузоваткинское месторождение","oil","","нефтяное",60.089444,72.465833,"/oil-gas-field/kuzovatkinskoe","Kuzovatkinskoe"
385,"Сабетта","ООО «НОВАТЭК-ЮРХАРОВНЕФТЕГАЗ»","Верхнетиутейское месторождение","gas","","газовое",70.7075,69.971667,"/oil-gas-field/verkhnetiuteyskoe","Verkhnetiuteyskoe"
386,"Сабетта","ООО «НОВАТЭК-ЮРХАРОВНЕФТЕГАЗ»","Западно-Сеяхинское месторождение","gas","","газовое",70.715278,69.965278,"/oil-gas-field/zapadno-seyakhinskoye","Zapadno Seyakhinskoye"
387,"Бузулук","АО «Оренбургнефть»","Росташинское месторождение","oil","","нефтяное",52.005556,51.673333,"/oil-gas-field/rostashinskoe","Rostashinskoe"
388,"Бузулук","АО «Оренбургнефть»","Сорочинско-Никольское месторождение","oil-gas","","нефтегазовое",52.601944,53.192222,"/oil-gas-field/sorochinsko-nikolskoe","Sorochinsko Nikolskoe"
389,"Бузулук","АО «Оренбургнефть»","Гаршинское месторождение","oil","","нефтяное",52.2175,51.851389,"/oil-gas-field/garshinskoe","Garshinskoe"
390,"Бузулук","АО «Оренбургнефть»","Покровское месторождение","oil","","нефтяное",52.818333,53.049167,"/oil-gas-field/pokrovskoe","Pokrovskoe"
391,"Когалым","ООО «ЛУКОЙЛ-Западная Сибирь»","Северо-Кочевское месторождение","oil","","нефтяное",62.720278,73.270278,"/oil-gas-field/severo-kochevskoe","Severo Kochevskoe"
392,"Соликамск","ООО ""ЛУКОЙЛ-ПЕРМЬ""","Месторождение им. Сухарева","oil","","нефтяное",59.365,56.669167,"/oil-gas-field/im-sukhareva","Im Sukhareva"
393,"Бузулук","АО «Оренбургнефть»","Скворцовское месторождение","oil","","нефтяное",52.557778,52.385556,"/oil-gas-field/skvortsovskoe","Skvortsovskoe"
394,"Туймазы","ПАО АНК «Башнефть»","Илишевское месторождение","oil","","нефтяное",55.387222,54.046111,"/oil-gas-field/ilishevskoe","Ilishevskoe"
395,"Тулун","ПАО «Газпром»","Чиканское месторождение","gas-condensate","","газоконденсатное",54.980833,105.671111,"/oil-gas-field/chikanskoe","Chikanskoe"
396,"Новый Уренгой","ООО «ЛУКОЙЛ-Западная Сибирь»","Хальмерпаютинское месторождение","gas-condensate","","газоконденсатное",67.6875,81.334444,"/oil-gas-field/khalmerpayutinskoe","Khalmerpayutinskoe"
397,NA,"ПАО «Газпром»","Нярмейский участок","gas","","газовое",72.477222,68.100278,"/oil-gas-field/nyarmeiskoe","Nyarmeiskoe"
398,NA,"ПАО «Газпром»","Месторождение им. В.А. Динкова","gas","","газовое",73.310833,65.668611,"/oil-gas-field/im-dinkova","Im Dinkova"
399,NA,"ПАО «Газпром»","Скуратовский участок","gas","","газовое",72.9425,68.401389,"/oil-gas-field/skuratovskoe","Skuratovskoe"
400,"Сургут","ООО «РН-Юганскнефтегаз»","Южно-Балыкское месторождение","oil","","нефтяное",60.595,72.697222,"/oil-gas-field/yuzhno-balykskoe","Yuzhno Balykskoe"
401,"Сургут","ООО «РН-Юганскнефтегаз»","Среднеугутское месторождение","oil-gas","","нефтегазовое",60.464444,73.897222,"/oil-gas-field/sredneugutskoe","Sredneugutskoe"
402,"Нижневартовск","ПАО ""НК ""РОСНЕФТЬ""","Верхнеколик-Еганское месторождение","oil-gas-condensate","","нефтегазоконденсатное",62.394167,80.121389,"/oil-gas-field/verkhnekolik-eganskoe","Verkhnekolik Eganskoe"
403,"Ханты-Мансийск","ООО «РН «Уватнефтегаз»","Радонежское месторождение","oil","","нефтяное",59.44457,71.598716,"/oil-gas-field/radonezhskoe","Radonezhskoe"
404,"Тобольск","ООО «РН «Уватнефтегаз»","Северо-Тямкинское месторождение","oil","","нефтяное",59.128611,71.756667,"/oil-gas-field/severo-tyamkinskoe","Severo Tyamkinskoe"
405,"Норильск","ООО «НОВАТЭК-ЮРХАРОВНЕФТЕГАЗ»","Нанадянское месторождение","gas","","газовое",69.730278,79.664444,"/oil-gas-field/nanadyanskoe","Nanadyanskoe"
406,"Нижневартовск","АО «Русь-Ойл»","Варынгское месторождение","oil-gas-condensate","","нефтегазоконденсатное",62.464032,80.364494,"/oil-gas-field/varyngskoe","Varyngskoe"
407,"Нижневартовск","ПАО ""НК ""РОСНЕФТЬ""","Бахиловское месторождение","oil-gas-condensate","","нефтегазоконденсатное",62.485904,79.752125,"/oil-gas-field/bakhilovskoe","Bakhilovskoe"
408,"Тольятти","АО «РИТЭК»","Майоровское месторождение","oil","","нефтяное",54.223611,50.693056,"/oil-gas-field/maiorovskoe","Maiorovskoe"
409,"Тольятти","АО «РИТЭК»","Марьинское месторождение","oil","","нефтяное",51.206944,50.612222,"/oil-gas-field/marinskoe","Marinskoe"
410,"Сургут","ОАО ""Сургутнефтегаз""","Комарьинское месторождение","oil-gas-condensate","","нефтегазоконденсатное",61.4325,72.2175,"/oil-gas-field/komarinskoe","Komarinskoe"
411,"Мелеуз","ПАО АНК «Башнефть»","Тереклинское месторождение","oil","","нефтяное",53.119167,55.842778,"/oil-gas-field/tereklinskoe","Tereklinskoe"
412,"Ханты-Мансийск","ООО «Газпромнефть-Хантос»","Южно-Приобское месторождение","oil","","нефтяное",60.800054,69.892273,"/oil-gas-field/yuzhno-priobskoe","Yuzhno Priobskoe"
413,"Пермь","ООО ""ЛУКОЙЛ-ПЕРМЬ""","Рассветное месторождение","oil","","нефтяное",57.395499,55.795397,"/oil-gas-field/rassvetnoe","Rassvetnoe"
414,"Уфа","ПАО АНК «Башнефть»","Искринское месторождение","oil","","нефтяное",54.804115,56.628685,"/oil-gas-field/iskrinskoe","Iskrinskoe"
415,"Новый Уренгой","ООО «НОВАТЭК-ТАРКОСАЛЕНЕФТЕГАЗ»","Южно-Хадырьяхинское месторождение","oil-gas-condensate","","нефтегазоконденсатное",65.033889,79.965,"/oil-gas-field/yuzhno-khadyryakhinskoe","Yuzhno Khadyryakhinskoe"
416,"Новый Уренгой","ООО «НОВАТЭК-ТАРКОСАЛЕНЕФТЕГАЗ»","Стерховое месторождение","gas-condensate","","газоконденсатное",65.337222,77.378056,"/oil-gas-field/sterkhovoe","Sterkhovoe"
417,"Томск","ООО «Газпромнефть-Восток»","Южно-Шингинское месторождение","oil","","нефтяное",58.237483,78.336039,"/oil-gas-field/yuzhno-shinginskoe","Yuzhno Shinginskoe"
418,"Новый Уренгой","АО «Газпромнефть-Ноябрьскнефтегаз»","Западно-Чатылькинское месторождение","oil","","нефтяное",63.297222,80.674444,"/oil-gas-field/west-chatylkinskoe","West Chatylkinskoe"
419,"Печора","ООО «ЛУКОЙЛ-Коми»","Южно-Терехевейское месторождение","oil","","нефтяное",65.284722,55.86,"/oil-gas-field/south-terekheveiskoe","South Terekheveiskoe"
420,"Норильск","ПАО «НОВАТЭК»","Солетско-Ханавейское месторождение","gas-condensate","","газоконденсатное",69.776389,75.383333,"/oil-gas-field/soletsko-khanaveiskoe","Soletsko Khanaveiskoe"
421,"Салехард","ПАО «НОВАТЭК»","Штормовое месторождение","gas","","газовое",71.771111,73.743333,"/oil-gas-field/stormovoe","Stormovoe"
422,"Певек","ООО «Газпромнефть-Сахалин»","Северо-Врангелевский лицензионный участок","oil-gas","","нефтегазовое",73.311111,175.260278,"/oil-gas-field/severo-vrangelevsky","Severo Vrangelevsky"
423,"Кодинск","ПАО «Газпром»","Абаканское месторождение","gas","","газовое",58.359444,97.318611,"/oil-gas-field/abakanskoe","Abakanskoe"
424,NA,"ПАО «Газпром»","Ильбокичское месторождение","gas-condensate","","газоконденсатное",59.131667,98.625556,"/oil-gas-field/ilbokichskoe","Ilbokichskoe"
425,"Богучаны","ПАО «Газпром»","Имбинское месторождение","gas","","газовое",58.462778,97.641944,"/oil-gas-field/imbinskoye","Imbinskoye"
426,"Николаевск-на-Амуре","«Сахалин Энерджи Инвестмент Компани Лтд.» («Сахалин Энерджи» / ""SAKHALIN ENERGY"")","Лунское месторождение","oil-gas-condensate","","нефтегазоконденсатное",51.434722,143.651944,"/oil-gas-field/lunskoe","Lunskoe"
427,"Ленск","ОАО ""Сургутнефтегаз""","Ленское месторождение","oil-gas-condensate","","нефтегазоконденсатное",64.714167,80.448056,"/oil-gas-field/lenskoye","Lenskoye"
428,"Оха","«Сахалин Энерджи Инвестмент Компани Лтд.» («Сахалин Энерджи» / ""SAKHALIN ENERGY"")","Пильтун-Астохское месторождение","oil-gas-condensate","","нефтегазоконденсатное",52.845556,143.594722,"/oil-gas-field/piltun-astokhskoe","Piltun Astokhskoe"
429,"Аксай","Собственник/Инвестор","Карачаганакское месторождение","oil-gas-condensate","","нефтегазоконденсатное",51.353934,53.208954,"/oil-gas-field/karachaganakskoe","Karachaganakskoe"
430,"Альметьевск","АО «РИТЭК»","Енорускинское месторождение","oil","","нефтяное",54.871111,50.967778,"/oil-gas-field/enoruskinskoe","Enoruskinskoe"
431,"Новый Уренгой","АО ""Зарубежнефть""","Луцеяхское месторождение","oil","","нефтяное",65.026944,73.343889,"/oil-gas-field/lutseyakhskoe","Lutseyakhskoe"
432,"Феодосия","Собственник/Инвестор","Поворотное месторождение","gas-condensate","","газоконденсатное",45.294694,35.303879,"/oil-gas-field/povorotnoe","Povorotnoe"
433,"Уфа","ПАО АНК «Башнефть»","Манчаровское месторождение","oil","","нефтяное",55.373889,54.496944,"/oil-gas-field/mancharovskoe","Mancharovskoe"
434,"Новый Уренгой","ООО «НОВАТЭК-ТАРКОСАЛЕНЕФТЕГАЗ»","Юмантыльское месторождение","oil-gas-condensate","","нефтегазоконденсатное",65.061111,78.870556,"/oil-gas-field/yumantylskoe","Yumantylskoe"
435,NA,NA,"Прохоровское месторождение","oil","","нефтяное",66.018018,56.953125,"/oil-gas-field/prokhorovskoe","Prokhorovskoe"
436,"Новый Уренгой","ООО «НОВАТЭК-ЮРХАРОВНЕФТЕГАЗ»","Усть-Ямсовейское месторождение","gas-condensate","","газоконденсатное",65.876111,78.186389,"/oil-gas-field/ust-yamsoveiskoe","Ust Yamsoveiskoe"
437,"Новый Уренгой","ОАО ""Арктикгаз"" (""АРКТИЧЕСКАЯ ГАЗОВАЯ КОМПАНИЯ"")","Северо-Часельское НГКМ","oil-gas-condensate","","нефтегазоконденсатное",66.009167,79.332222,"/oil-gas-field/north-chaselsky-license-area","North Chaselsky License Area"
438,"Тазовский","ООО «ЛУКОЙЛ-Западная Сибирь»","Южно-Мессояхское месторождение","gas-condensate","","газоконденсатное",68.133333,78.95,"/oil-gas-field/south-messoyakhskoye","South Messoyakhskoye"
439,"Яр-Сале","ПАО «Газпром нефть»","Хамбатейское месторождение","gas-condensate","","газоконденсатное",68.766667,72.833333,"/oil-gas-field/khambateyskoye","Khambateyskoye"
440,"Усть-Илимск","ООО «Газпром добыча Краснодар»","Собинское месторождение","oil-gas-condensate","","нефтегазоконденсатное",60,102,"/oil-gas-field/sobinskoye","Sobinskoye"
441,"Ноябрьск","ООО «РН-Пурнефтегаз»","Южно-Тарасовское месторождение","oil","","нефтяное",64.26321,77.507502,"/oil-gas-field/yuzhno-tarasovskoye","Yuzhno Tarasovskoye"
442,"Губкинский","ООО «ЛУКОЙЛ-Западная Сибирь»","Северо-Губкинское месторождение","oil-gas-condensate","","нефтегазоконденсатное",65.166667,76.5,"/oil-gas-field/severo-gubkinskoye","Severo Gubkinskoye"
443,"Ноябрьск","АО «Газпромнефть-Ноябрьскнефтегаз»","Валынтойское месторождение","oil","","нефтяное",63.686123,74.374008,"/oil-gas-field/valyntoyskoye","Valyntoyskoye"
444,"Ханты-Мансийск","ПАО ""НК ""РОСНЕФТЬ""","Ендырское месторождение","oil","","нефтяное",59.989167,69.281944,"/oil-gas-field/yendyrskoye","Yendyrskoye"
445,"Ямбург","ООО «НОВАТЭК-ЮРХАРОВНЕФТЕГАЗ»","Геофизическое месторождение","oil-gas-condensate","","нефтегазоконденсатное",69.8675,73.781667,"/oil-gas-field/geofizicheskoye","Geofizicheskoye"
446,"Усть-Кут","ООО ""Газпром добыча Иркутск""","Хандинское месторождение","gas-condensate","","газоконденсатное",55.284444,107.068056,"/oil-gas-field/khandinskoye","Khandinskoye"
447,"Ленск","ООО ""Газпромнефть-Ангара""","Хотого-Мурбайское месторождение","gas","","газовое",61.333333,113.55,"/oil-gas-field/khotogo-murbayskoye","Khotogo Murbayskoye"
448,"Вилюйск","ООО ""Газпром геологоразведка""","Соболох-Неджелинское месторождение","gas-condensate","","газоконденсатное",63.666667,124.75,"/oil-gas-field/sobolokh-nedzhelinskoye","Sobolokh Nedzhelinskoye"
449,"Братск","АО ""Братскэкогаз""","Братское месторождение","gas-condensate","","газоконденсатное",56.283336,102.297811,"/oil-gas-field/bratskoye","Bratskoye"
450,"Богучаны","ООО ""Газпром геологоразведка""","Берямбинское месторождение","gas","","газовое",58.41,100.405278,"/oil-gas-field/beryambinskoye","Beryambinskoye"
451,"Куюмба","ООО «Красноярскгазпром нефтегазпроект»","Ново-Юдуконское месторождение","gas-condensate","","газоконденсатное",60.475278,100.3875,"/oil-gas-field/novo-yudukonskoye","Novo Yudukonskoye"
452,"Стрежевой","ОАО «Томскгазпром»","Северо-Васюганское месторождение","gas-condensate","","газоконденсатное",59.378056,78.307222,"/oil-gas-field/severo-vasyuganskoye","Severo Vasyuganskoye"
453,"Кедровый","ОАО «Томскгазпром»","Мирное месторождение","oil-gas-condensate","","нефтегазоконденсатное",57.663056,79.493333,"/oil-gas-field/mirnoye","Mirnoye"
454,"Тарко-Сале","ООО ""Газпром добыча Ноябрьск""","Кутымское месторождение","oil-gas-condensate","","нефтегазоконденсатное",64.550556,79.532222,"/oil-gas-field/kutymskoye","Kutymskoye"
455,"Тарко-Сале","ООО ""Газпром добыча Ноябрьск""","Восточно-Тэрельское месторождение","oil-gas","","нефтегазовое",64.525833,80.473056,"/oil-gas-field/vostochno-terelskoye","Vostochno Terelskoye"
456,"Красноселькуп","ООО ""Газпром добыча Ноябрьск""","Южно-Кыпакынское месторождение","gas-condensate","","газоконденсатное",64.4575,81.947778,"/oil-gas-field/yuzhno-kypakyskoye","Yuzhno Kypakyskoye"
457,"Тарко-Сале","АО «НК «Мангазея»","Акайтемское месторождение","oil-gas","","нефтегазовое",64.164167,81.691389,"/oil-gas-field/akaytemskoye","Akaytemskoye"
458,"Новый Уренгой","ОАО «Севернефтегазпром»","Яровое месторождение","oil-gas-condensate","","нефтегазоконденсатное",65.690556,80.55,"/oil-gas-field/yarovoye","Yarovoye"
459,"Новый Уренгой","АО «Сибнефтегаз»","Западно-Заполярное месторождение","gas","","газовое",66.684722,78.832222,"/oil-gas-field/zapadno-zapolyarnoye","Zapadno Zapolyarnoye"
460,"Новый Уренгой","ООО ""Газпром добыча Уренгой""","Западно-Песцовое месторождение","oil-gas-condensate","","нефтегазоконденсатное",66.946389,75.335278,"/oil-gas-field/zapadno-pestsovoye","Zapadno Pestsovoye"
461,"Новый Уренгой","ООО ""Газпром добыча Уренгой""","Южно-Песцовое месторождение","gas-condensate","","газоконденсатное",66.700833,75.548611,"/oil-gas-field/yuzhno-pestsovoye","Yuzhno Pestsovoye"
462,"Новый Уренгой","ООО ""Газпром добыча Надым""","Падинское месторождение","gas-condensate","","газоконденсатное",66.54,74.660556,"/oil-gas-field/padinskoye","Padinskoye"
463,"Новый Уренгой","ООО ""Газпром добыча Надым""","Южно-Падинское месторождение","oil-gas-condensate","","нефтегазоконденсатное",66.54,74.660556,"/oil-gas-field/yuzhno-padinskoye","Yuzhno Padinskoye"
464,"Тарко-Сале","АО ""НК ""Технологии добычи нефти и инвестиции"" (""Технефтьинвест"")","Дремучее месторождение","oil-gas-condensate","","нефтегазоконденсатное",65.033611,74.660556,"/oil-gas-field/dremucheye","Dremucheye"
465,"Новый Уренгой","ООО ""Газпром добыча Надым""","Пангодинское месторождение","gas-condensate","","газоконденсатное",65.5575,74.534444,"/oil-gas-field/pangodinskoye","Pangodinskoye"
466,"Тарко-Сале","ООО «ЛУКОЙЛ-Западная Сибирь»","Присклоновое месторождение","oil-gas-condensate","","нефтегазоконденсатное",65.8475,76.700833,"/oil-gas-field/prisklonovoye","Prisklonovoye"
467,"Губкинский","ОАО ""НК ""Янгпур""","Вьюжное месторождение","gas-condensate","","газоконденсатное",64.616667,76.033333,"/oil-gas-field/vyuzhnoye","Vyuzhnoye"
468,"Ямбург","Собственник/Инвестор","Харвутинское месторождение","oil-gas","","нефтегазовое",67.250833,74.498333,"/oil-gas-field/kharvutinskoye","Kharvutinskoye"
469,"Ямбург","ООО ""Газпром добыча Ямбург""","Южно-Парусовое месторождение","gas-condensate","","газоконденсатное",68.150833,74.831944,"/oil-gas-field/yuzhno-parusovoye","Yuzhno Parusovoye"
470,"Ямбург","ООО ""РусГазАльянс""","Северо-Парусовое месторождение","gas","","газовое",68.684167,74.898333,"/oil-gas-field/severo-parusovoye","Severo Parusovoye"
471,"Ямбург","ООО ""РусГазАльянс""","Парусовое месторождение","oil-gas","","нефтегазовое",68.423611,74.591111,"/oil-gas-field/parusovoye","Parusovoye"
472,"Ямбург","ООО ""РусГазАльянс""","Семаковское месторождение","gas","","газовое",69,75.5,"/oil-gas-field/semakovskoye","Semakovskoye"
473,"Ямбург","ПАО «Газпром»","Антипаютинское месторождение","gas","","газовое",69.034444,77.147222,"/oil-gas-field/antipayutinskoye","Antipayutinskoye"
474,"Ямбург","ПАО «Газпром»","Тота-Яхинское месторождение","gas","","газовое",69.233333,76.166667,"/oil-gas-field/tota-yakhinskoye","Tota Yakhinskoye"
475,"Яр-Сале","ПАО «Газпром»","Чугорьяхинское месторождение","gas-condensate","","газоконденсатное",68.984167,73.348333,"/oil-gas-field/chugoryakhinskoye","Chugoryakhinskoye"
476,"Бованенково","ПАО «Газпром»","Южно-Крузенштернское месторождение","gas","","газовое",70.334167,67.164444,"/oil-gas-field/yuzhno-kruzenshternskoye","Yuzhno Kruzenshternskoye"
477,"Сабетта","ПАО «Газпром»","Западно-Тамбейское месторождение","oil-gas-condensate","","нефтегазоконденсатное",71.534167,70.914722,"/oil-gas-field/zapadno-tambeyskoye","Zapadno Tambeyskoye"
478,"Лабытнанги","ООО ""Газпром добыча Ямбург""","Северо-Каменномысское месторождение","gas-condensate","","газоконденсатное",68.416667,73.416667,"/oil-gas-field/severo-kamennomysskoye","Severo Kamennomysskoye"
479,"Нарьян-Мар","ОАО Арктикморнефтегазразведка","Поморское месторождение","gas-condensate","","газоконденсатное",69.143419,53.142443,"/oil-gas-field/pomorskoye","Pomorskoye"
480,"Печора","ООО «Газпром добыча Краснодар»","Печорокожвинское месторождение","oil-gas-condensate","","нефтегазоконденсатное",62.5,57.131145,"/oil-gas-field/pechorokozhvinskoye","Pechorokozhvinskoye"
481,"Печора","ООО «Газпром добыча Краснодар»","Северо-Югидское месторождение","oil-gas-condensate","","нефтегазоконденсатное",64.781111,57.325,"/oil-gas-field/severo-yugidskoye","Severo Yugidskoye"
482,"Вуктыл","ООО «Газпром добыча Краснодар»","Западно-Соплесское месторождение","oil-gas-condensate","","нефтегазоконденсатное",64.433333,57.397811,"/oil-gas-field/zapadno-soplesskoye","Zapadno Soplesskoye"
483,"Печора","ООО «Газпром добыча Краснодар»","Югидское месторождение","oil-gas-condensate","","нефтегазоконденсатное",64.666667,52.281145,"/oil-gas-field/yugidskoye","Yugidskoye"
484,"Вуктыл","ООО «Газпром добыча Краснодар»","Вуктыльское месторождение","oil-gas-condensate","","нефтегазоконденсатное",63.666667,57.497811,"/oil-gas-field/vuktylskoye","Vuktylskoye"
485,"Нижний Тагил","ООО ""Газпром добыча Ноябрьск""","Кедровское месторождение","gas","","газовое",57.575556,58.496944,"/oil-gas-field/kedrovskoye","Kedrovskoye"
486,"Екатеринбург","ПАО «Газпром»","Сухореченское месторождение","oil-gas","","нефтегазовое",56.388889,57.670833,"/oil-gas-field/sukhorechenskoye","Sukhorechenskoye"
487,"Оренбург","АО ""УНГП"" (АО ""Уралнефтегазпром"")","Копанское месторождение","oil-gas-condensate","","нефтегазоконденсатное",51.305278,55.572778,"/oil-gas-field/kopanskoye","Kopanskoye"
488,"Оренбург","АО ""УНГП"" (АО ""Уралнефтегазпром"")","Теректинское месторождение","gas-condensate","","газоконденсатное",51.433611,55.798611,"/oil-gas-field/terektinskoye","Terektinskoye"
489,"Оренбург","ООО ""Газпром добыча Оренбург""","Акобинское месторождение","gas","","газовое",51.001944,55.8625,"/oil-gas-field/akobinskoye","Akobinskoye"
490,"Усть-Кут","ООО «Газпром добыча Краснодар»","Патроновское месторождение","gas-condensate","","газоконденсатное",48.666667,39.766667,"/oil-gas-field/patronovskoye","Patronovskoye"
491,"Дмитровград","ООО «Газпром добыча Краснодар»","Плотинское месторождение","gas","","газовое",48.566667,40.066667,"/oil-gas-field/plotinskoye","Plotinskoye"
492,"Дмитровград","ООО «Газпром добыча Краснодар»","Дубовское месторождение","gas-condensate","","газоконденсатное",48.566667,40.033333,"/oil-gas-field/dubovskoye","Dubovskoye"
493,"Ростов-на-Дону","ООО «Газпром добыча Краснодар»","Синявское месторождение","gas","","газовое",46.633337,39.497811,"/oil-gas-field/sinyavskoye","Sinyavskoye"
494,"Приморско-Ахтарск","ООО «Газпром добыча Краснодар»","Бейсугское месторождение","gas","","газовое",46.160556,38.317222,"/oil-gas-field/beysugskoye","Beysugskoye"
495,"Приморско-Ахтарск","ООО «Газпром добыча Краснодар»","Свободненское месторождение","gas","","газовое",45.953611,38.355833,"/oil-gas-field/svobodnenskoye","Svobodnenskoye"
496,"Приморско-Ахтарск","ООО «Газпром добыча Краснодар»","Лебединское месторождение","gas","","газовое",45.687222,38.326667,"/oil-gas-field/lebedinskoye","Lebedinskoye"
497,"Приморско-Ахтарск","ООО «Газпром добыча Краснодар»","Каневско-Лебяжье месторождение","gas-condensate","","газоконденсатное",46.145556,38.750278,"/oil-gas-field/kanevsko-Lebyazhye","Kanevsko Lebyazhye"
498,"Ейск","ООО «Газпром добыча Краснодар»","Староминское месторождение","gas-condensate","","газоконденсатное",46.427778,39.232778,"/oil-gas-field/starominskoye","Starominskoye"
499,"Тимашевск","ООО «Газпром добыча Краснодар»","Гречаное месторождение","gas","","газовое",45.705278,38.653333,"/oil-gas-field/grechanoye","Grechanoye"
500,"Тимашевск","ООО «Газпром добыча Краснодар»","Роговское месторождение","gas","","газовое",45.744722,38.708056,"/oil-gas-field/rogovskoye","Rogovskoye"
501,"Тимашевск","ООО «Газпром добыча Краснодар»","Днепровское месторождение","gas","","газовое",45.611111,38.700278,"/oil-gas-field/dneprovskoye","Dneprovskoye"
502,"Тимашевск","ООО «Газпром добыча Краснодар»","Крыловское месторождение","gas-condensate","","газоконденсатное",46.17,39.249444,"/oil-gas-field/krylovskoye","Krylovskoye"
503,"Тимашевск","ООО «Газпром добыча Краснодар»","Восточно-Крыловское месторождение","gas-condensate","","газоконденсатное",46.143056,39.338889,"/oil-gas-field/vostochno-krylovskoye","Vostochno Krylovskoye"
504,"Тихорецк","ООО «Газпром добыча Краснодар»","Челбасское месторождение","gas-condensate","","газоконденсатное",45.996389,39.155278,"/oil-gas-field/chelbasskoye","Chelbasskoye"
505,"Батайск","ООО «Газпром добыча Краснодар»","Северо-Екатериновское месторождение","gas-condensate","","газоконденсатное",46.462222,39.821667,"/oil-gas-field/severo-yekaterinovskoye","Severo Yekaterinovskoye"
506,"Тихорецк","ООО «Газпром добыча Краснодар»","Южно-Сердюковское месторождение","gas-condensate","","газоконденсатное",45.9332,39.5985,"/oil-gas-field/yuzhno-serdyukovskoye","Yuzhno Serdyukovskoye"
507,"Тихорецк","ООО «Газпром добыча Краснодар»","Березанское месторождение","gas-condensate","","газоконденсатное",45.725833,39.544444,"/oil-gas-field/berezanskoye","Berezanskoye"
508,"Тихорецк","ООО «Газпром добыча Краснодар»","Сердюковское месторождение","gas-condensate","","газоконденсатное",45.900833,39.514167,"/oil-gas-field/serdyukovskoye","Serdyukovskoye"
509,"Тихорецк","ООО «Газпром добыча Краснодар»","Ильинское месторождение","gas-condensate","","газоконденсатное",45.767778,40.885556,"/oil-gas-field/ilinskoye","Ilinskoye"
510,"Новоалександровск","ООО «Газпром добыча Краснодар»","Расшеватское месторождение","gas-condensate","","газоконденсатное",45.565,41.216667,"/oil-gas-field/rasshevatskoye","Rasshevatskoye"
511,"Ставрополь","ПАО «Газпром»","Северо-Ставропольско-Пелагиадинское месторождение","gas","","газовое",45.283611,41.886111,"/oil-gas-field/severo-stavropolsko-pelagiadinskoye","Severo Stavropolsko Pelagiadinskoye"
512,"Ставрополь","ООО «Газпром добыча Краснодар»","Сенгилеевское месторождение","gas","","газовое",45.018611,41.716389,"/oil-gas-field/sengileyevskoye","Sengileyevskoye"
513,"Армавир","ООО «Газпром добыча Краснодар»","Николаевское месторождение","gas-condensate","","газоконденсатное",44.89806,41.556667,"/oil-gas-field/nikolayevskoye","Nikolayevskoye"
514,"Армавир","ООО «Газпром добыча Краснодар»","Южно-Советское месторождение","gas-condensate","","газоконденсатное",44.6925,41.171944,"/oil-gas-field/yuzhno-sovetskoye","Yuzhno Sovetskoye"
515,"Городовиковск","ООО «Газпром добыча Краснодар»","Радыковское месторождение","gas","","газовое",46.034722,41.961389,"/oil-gas-field/radykovskoye","Radykovskoye"
516,"Городовиковск","ООО «Газпром добыча Краснодар»","Южно-Радыковское месторождение","gas","","газовое",45.929444,42.006389,"/oil-gas-field/yuzhno-radykovskoye","Yuzhno Radykovskoye"
517,"Ставрополь","ООО «Газпром добыча Краснодар»","Безопасненское месторождение","gas","","газовое",45.600004,42.081144,"/oil-gas-field/bezopasnenskoye","Bezopasnenskoye"
518,"Ставрополь","ООО «Газпром добыча Краснодар»","Тахта-Кугультинское месторождение","gas","","газовое",45.826944,42.396111,"/oil-gas-field/takhta-Kugultinskoye","Takhta Kugultinskoye"
519,"Светлоград","ООО «Газпром добыча Краснодар»","Кугутское месторождение","gas","","газовое",45.834444,42.397222,"/oil-gas-field/kugutskoye","Kugutskoye"
520,"Светлоград","ООО «Газпром добыча Краснодар»","Казино-Грачевское месторождение","gas","","газовое",45.24,42.441944,"/oil-gas-field/kazino-grachevskoye","Kazino Grachevskoye"
521,"Светлоград","ООО «Газпром добыча Краснодар»","Петровско-Благодарненское месторождение","gas","","газовое",45.216944,42.984444,"/oil-gas-field/petrovsko-blagodarnenskoye","Petrovsko Blagodarnenskoye"
522,"Благодарный","ООО «Газпром добыча Краснодар»","Каменно-Балковское месторождение","gas","","газовое",45.6025,43.968611,"/oil-gas-field/kamenno-balkovskoye","Kamenno Balkovskoye"
523,"Благодарный","ООО «Газпром добыча Краснодар»","Восточно-Арзгирское месторождение","gas","","газовое",45.450278,44.103611,"/oil-gas-field/vostochno-arzgirskoye","Vostochno Arzgirskoye"
524,"Благодарный","ООО «Газпром добыча Краснодар»","Мирненское месторождение","gas-condensate","","газоконденсатное",45.238889,43.669722,"/oil-gas-field/mirnenskoye","Mirnenskoye"
525,"Благодарный","ООО «Газпром добыча Краснодар»","Журавское месторождение","oil-gas","","нефтегазовое",44.898333,43.321111,"/oil-gas-field/zhuravskoye","Zhuravskoye"
526,"Белореченск","ООО «Газпром добыча Краснодар»","Некрасовское месторождение","gas-condensate","","газоконденсатное",45.109167,39.805556,"/oil-gas-field/nekrasovskoye","Nekrasovskoye"
527,"Белореченск","ООО «Газпром добыча Краснодар»","Ладожское месторождение","gas","","газовое",45.198611,40.015278,"/oil-gas-field/ladozhskoye","Ladozhskoye"
528,"Славянск-на-Кубани","ООО «Газпром добыча Краснодар»","Пригибское месторождение","gas","","газовое",45.681111,38.095,"/oil-gas-field/prigibskoye","Prigibskoye"
529,"Славянск-на-Кубани","ООО «Газпром добыча Краснодар»","Гривенское месторождение","gas","","газовое",45.576944,38.0025,"/oil-gas-field/grivenskoye","Grivenskoye"
530,"Славянск-на-Кубани","ООО «Газпром добыча Краснодар»","Мусициевское месторождение","gas","","газовое",45.34444,37.875278,"/oil-gas-field/musitsiyevskoye","Musitsiyevskoye"
531,"Славянск-на-Кубани","ООО «Газпром добыча Краснодар»","Мостовянское месторождение","gas","","газовое",45.625556,37.8275,"/oil-gas-field/mostovyanskoye","Mostovyanskoye"
532,"Каменск-Шахтинский","ООО «Газпром добыча Краснодар»","Кружиловское месторождение","gas","","газовое",48.56667,39.997811,"/oil-gas-field/kruzhilovskoye","Kruzhilovskoye"
533,"Темрюк","ООО «Газпром добыча Краснодар»","Прибрежное месторождение","oil-gas-condensate","","нефтегазоконденсатное",45.516944,37.6225,"/oil-gas-field/pribrezhnoye","Pribrezhnoye"
534,"Краснодар","ООО «Газпром добыча Краснодар»","Мечетское месторождение","gas","","газовое",45.478889,37.838333,"/oil-gas-field/mechetskoye","Mechetskoye"
535,"Темрюк","ООО «Газпром добыча Краснодар»","Черноерковское месторождение","oil-gas-condensate","","нефтегазоконденсатное",45.538056,37.740833,"/oil-gas-field/chernoyerkovskoye","Chernoyerkovskoye"
536,"Темрюк","ООО «Газпром добыча Краснодар»","Южно-Черноерковское месторождение","oil-gas","","нефтегазовое",45.524722,37.716667,"/oil-gas-field/yuzhno-chernoyerkovskoye","Yuzhno Chernoyerkovskoye"
537,"Крымск","ООО «Газпром добыча Краснодар»","Красноармейское месторождение","gas","","газовое",45.283611,38.316944,"/oil-gas-field/krasnoarmeyskoye","Krasnoarmeyskoye"
538,"Краснодар","ООО «Газпром добыча Краснодар»","Западно-Красноармейское месторождение","gas","","газовое",45.370833,38.093889,"/oil-gas-field/zapadno-krasnoarmeyskoye","Zapadno Krasnoarmeyskoye"
539,"Мурманск","ПАО «Газпром»","Ледовое месторождение","gas-condensate","","газоконденсатное",73.9675,46.771667,"/oil-gas-field/ledovoye","Ledovoye"
540,"Дудинка","ПАО ""НК ""РОСНЕФТЬ""","Западно-Иркинский лицензионный участок","oil-gas","","нефтегазовое",70.548692,82.65564,"/oil-gas-field/zapadno-Irkinskoye","Zapadno Irkinskoye"
541,"Волгоград","АО «РИТЭК»","Малышевское месторождение","oil-gas-condensate","","нефтегазоконденсатное",49.855833,45.499722,"/oil-gas-field/malyshevskoye-vol","Malyshevskoye Vol"
542,"Новый Уренгой","АО «Сибнефтегаз»","Хадытаяхский лицензионный участок","oil-gas","","нефтегазовое",66.300278,79.209722,"/oil-gas-field/khadytayakhskoye","Khadytayakhskoye"
543,"Новый Уренгой","АО «Сибнефтегаз»","Малохадырьяхинский лицензионный участок","oil-gas","","нефтегазовое",65.459167,79.6925,"/oil-gas-field/malohadiryahinskoe","Malohadiryahinskoe"
544,"Краснодар","ПАО ""НК ""РОСНЕФТЬ""","Западно-Мечетское месторождение","oil","","нефтяное",45.488889,37.814167,"/oil-gas-field/zapadno-mechetskoye","Zapadno Mechetskoye"
545,"Бузулук","АО «Оренбургнефть»","Новожедринское месторождение","oil","","нефтяное",53.216111,53.366111,"/oil-gas-field/novozhedrinskoye","Novozhedrinskoye"
546,"Бузулук","АО «Оренбургнефть»","Пешковское месторождение","oil","","нефтяное",52.746111,51.349722,"/oil-gas-field/peshkovskoe","Peshkovskoe"
547,"Бузулук","АО «Оренбургнефть»","Сахаровское месторождение","oil-gas-condensate","","нефтегазоконденсатное",52.164722,51.503611,"/oil-gas-field/sakharovskoye","Sakharovskoye"
548,"Бузулук","АО «Оренбургнефть»","Бугринское месторождение","oil","","нефтяное",52.270833,51.390833,"/oil-gas-field/bugrinskoye","Bugrinskoye"
549,"Нижневартовск","ПАО ""НК ""РОСНЕФТЬ""","Пермяковское месторождение","oil","","нефтяное",61.331389,79.5575,"/oil-gas-field/permyakovskoye","Permyakovskoye"
550,"Бугуруслан","АО «Оренбургнефть»","Новомихайловское месторождение","oil","","нефтяное",53.525833,52.545,"/oil-gas-field/novomikhailovskoe","Novomikhailovskoe"
551,"Нижневартовск","ПАО ""НК ""РОСНЕФТЬ""","Хохловское месторождение","oil","","нефтяное",60.863056,76.298889,"/oil-gas-field/khokhlovskoye","Khokhlovskoye"
552,"Самара","АО «РИТЭК»","Мамуринское месторождение","oil","","нефтяное",52.444167,50.137778,"/oil-gas-field/mamurinskoye","Mamurinskoye"
553,"Чайковский","ООО ""ЛУКОЙЛ-ПЕРМЬ""","Осинское месторождение","oil","","нефтяное",57.224722,55.390278,"/oil-gas-field/osinskoye","Osinskoye"
554,NA,"ПАО «Татнефть»","Краснооктябрьское месторождение","oil","","нефтяное",65.073333,51.285833,"/oil-gas-field/krasnooktyabrskoye","Krasnooktyabrskoye"
555,"Лангепас","ООО «ЛУКОЙЛ-Западная Сибирь»","Локосовское месторождение","oil","","нефтяное",61.170556,74.966944,"/oil-gas-field/lokosovskoye","Lokosovskoye"
556,"Самара","АО ""Самаранефтегаз""","Белозерско-Чубовское месторождение","oil","","нефтяное",53.467778,50.428333,"/oil-gas-field/belozersko-chubovskoye","Belozersko Chubovskoye"
557,"Уфа","ПАО АНК «Башнефть»","Малышевское месторождение","oil","","нефтяное",54.406111,56.595,"/oil-gas-field/malyshevskoye-bash","Malyshevskoye Bash"
558,"Самара","АО ""Самаранефтегаз""","Малышевское месторождение","oil","","нефтяное",53.253056,51.14,"/oil-gas-field/malyshevskoye-sam","Malyshevskoye Sam"
